{
"type": "FeatureCollection",
"name": "10300101205D7300",
"crs": { "type": "name", "properties": { "name": "urn:ogc:def:crs:OGC:1.3:CRS84" } },
"features": [
{ "type": "Feature", "properties": { "datetime": "2025-12-18T11:22:03Z", "platform": "WV02", "gsd": 0.51, "ard_metadata_version": "0.0.1", "catalog_id": "10300101205D7300", "utm_zone": 29, "quadkey": "031311331023", "view:off_nadir": 19.3, "view:azimuth": 183.5, "view:incidence_angle": 68.3, "view:sun_azimuth": 160.6, "view:sun_elevation": 31.9, "proj:geometry": { "type": "Polygon", "coordinates": [ [ [ 470139.16015625, 3580215.7592773438 ], [ 470156.25, 3580215.7592773438 ], [ 470156.25, 3579843.75 ], [ 469630.43212890625, 3579843.75 ], [ 469630.7373046875, 3580210.2661132812 ], [ 470139.16015625, 3580215.7592773438 ] ] ] }, "grid:code": "MXRA-Z29-031311331023", "proj:bbox": "469630.43212890625,3579843.75,470156.25,3580215.7592773438", "tile:data_area": 0.1, "tile:clouds_area": 0.1, "tile:clouds_percent": 94, "proj:code": "EPSG:32629", "visual": "https://maxar-opendata.s3.amazonaws.com/events/Morocco-Flooding-Dec-2025/ard/29/031311331023/2025-12-18/10300101205D7300-visual.tif", "ms_analytic": "https://maxar-opendata.s3.amazonaws.com/events/Morocco-Flooding-Dec-2025/ard/29/031311331023/2025-12-18/10300101205D7300-ms.tif", "pan_analytic": "https://maxar-opendata.s3.amazonaws.com/events/Morocco-Flooding-Dec-2025/ard/29/031311331023/2025-12-18/10300101205D7300-pan.tif", "data-mask": "https://maxar-opendata.s3.amazonaws.com/events/Morocco-Flooding-Dec-2025/ard/29/031311331023/2025-12-18/10300101205D7300-data-mask.gpkg" }, "geometry": { "type": "Polygon", "coordinates": [ [ [ -9.317377452559475, 32.358478844966925 ], [ -9.317195814681673, 32.358479301910279 ], [ -9.31718410019141, 32.355123344592286 ], [ -9.322772500186348, 32.355109167462068 ], [ -9.32278100149308, 32.35841557655128 ], [ -9.317377452559475, 32.358478844966925 ] ] ] } },
{ "type": "Feature", "properties": { "datetime": "2025-12-18T11:22:03Z", "platform": "WV02", "gsd": 0.51, "ard_metadata_version": "0.0.1", "catalog_id": "10300101205D7300", "utm_zone": 29, "quadkey": "031311331032", "view:off_nadir": 19.3, "view:azimuth": 183.7, "view:incidence_angle": 68.3, "view:sun_azimuth": 160.6, "view:sun_elevation": 31.9, "proj:geometry": { "type": "Polygon", "coordinates": [ [ [ 472722.7783203125, 3580243.2250976562 ], [ 472830.810546875, 3580241.3940429688 ], [ 473185.4248046875, 3580209.6557617188 ], [ 475156.25, 3580218.505859375 ], [ 475156.25, 3579843.75 ], [ 469843.75, 3579843.75 ], [ 469843.75, 3580212.40234375 ], [ 472722.7783203125, 3580243.2250976562 ] ] ] }, "grid:code": "MXRA-Z29-031311331032", "proj:bbox": "469843.75,3579843.75,475156.25,3580243.2250976562", "tile:data_area": 2.0, "tile:clouds_area": 0.9, "tile:clouds_percent": 47, "proj:code": "EPSG:32629", "visual": "https://maxar-opendata.s3.amazonaws.com/events/Morocco-Flooding-Dec-2025/ard/29/031311331032/2025-12-18/10300101205D7300-visual.tif", "ms_analytic": "https://maxar-opendata.s3.amazonaws.com/events/Morocco-Flooding-Dec-2025/ard/29/031311331032/2025-12-18/10300101205D7300-ms.tif", "pan_analytic": "https://maxar-opendata.s3.amazonaws.com/events/Morocco-Flooding-Dec-2025/ard/29/031311331032/2025-12-18/10300101205D7300-pan.tif", "data-mask": "https://maxar-opendata.s3.amazonaws.com/events/Morocco-Flooding-Dec-2025/ard/29/031311331032/2025-12-18/10300101205D7300-data-mask.gpkg" }, "geometry": { "type": "Polygon", "coordinates": [ [ [ -9.289918442913553, 32.35879272984976 ], [ -9.288770172590974, 32.358778845740638 ], [ -9.285000265363065, 32.358501101855737 ], [ -9.264053666533663, 32.358626534283516 ], [ -9.264043842594072, 32.355245783707083 ], [ -9.320505355218, 32.355114948798352 ], [ -9.320517085541606, 32.358440621598213 ], [ -9.289918442913553, 32.35879272984976 ] ] ] } },
{ "type": "Feature", "properties": { "datetime": "2025-12-18T11:22:03Z", "platform": "WV02", "gsd": 0.51, "ard_metadata_version": "0.0.1", "catalog_id": "10300101205D7300", "utm_zone": 29, "quadkey": "031311331033", "view:off_nadir": 19.3, "view:azimuth": 184.7, "view:incidence_angle": 68.2, "view:sun_azimuth": 160.6, "view:sun_elevation": 31.9, "proj:geometry": { "type": "Polygon", "coordinates": [ [ [ 479930.72509765625, 3580285.3393554688 ], [ 480156.25, 3580283.8134765625 ], [ 480156.25, 3579843.75 ], [ 474843.75, 3579843.75 ], [ 474843.75, 3580215.7592773438 ], [ 475122.37548828125, 3580218.505859375 ], [ 475349.7314453125, 3580217.5903320312 ], [ 475560.302734375, 3580226.4404296875 ], [ 475769.6533203125, 3580226.1352539062 ], [ 475886.53564453125, 3580231.3232421875 ], [ 475994.2626953125, 3580231.3232421875 ], [ 476112.97607421875, 3580228.8818359375 ], [ 476251.8310546875, 3580232.5439453125 ], [ 476388.24462890625, 3580238.3422851562 ], [ 476565.5517578125, 3580238.9526367188 ], [ 476780.09033203125, 3580243.2250976562 ], [ 477043.15185546875, 3580237.7319335938 ], [ 477225.341796875, 3580238.3422851562 ], [ 477337.34130859375, 3580241.0888671875 ], [ 477397.15576171875, 3580244.140625 ], [ 477854.30908203125, 3580248.7182617188 ], [ 478278.1982421875, 3580266.7236328125 ], [ 478652.03857421875, 3580274.3530273438 ], [ 478760.986328125, 3580274.9633789062 ], [ 479193.7255859375, 3580282.5927734375 ], [ 479339.29443359375, 3580282.8979492188 ], [ 479488.83056640625, 3580280.4565429688 ], [ 479930.72509765625, 3580285.3393554688 ] ] ] }, "grid:code": "MXRA-Z29-031311331033", "proj:bbox": "474843.75,3579843.75,480156.25,3580285.3393554688", "tile:data_area": 2.1, "tile:clouds_area": 0.8, "tile:clouds_percent": 40, "proj:code": "EPSG:32629", "visual": "https://maxar-opendata.s3.amazonaws.com/events/Morocco-Flooding-Dec-2025/ard/29/031311331033/2025-12-18/10300101205D7300-visual.tif", "ms_analytic": "https://maxar-opendata.s3.amazonaws.com/events/Morocco-Flooding-Dec-2025/ard/29/031311331033/2025-12-18/10300101205D7300-ms.tif", "pan_analytic": "https://maxar-opendata.s3.amazonaws.com/events/Morocco-Flooding-Dec-2025/ard/29/031311331033/2025-12-18/10300101205D7300-pan.tif", "data-mask": "https://maxar-opendata.s3.amazonaws.com/events/Morocco-Flooding-Dec-2025/ard/29/031311331033/2025-12-18/10300101205D7300-data-mask.gpkg" }, "geometry": { "type": "Polygon", "coordinates": [ [ [ -9.213309552473145, 32.359325487880085 ], [ -9.210912506459898, 32.359315753828383 ], [ -9.21090329203027, 32.355345834584966 ], [ -9.267365117888659, 32.35523878716338 ], [ -9.267374992483861, 32.35859475935694 ], [ -9.264413701036124, 32.358625779997354 ], [ -9.261997229177156, 32.358622563687504 ], [ -9.259759404538444, 32.358707031528624 ], [ -9.25753431560933, 32.35870884154626 ], [ -9.256292164539298, 32.358758174011818 ], [ -9.25514718749754, 32.35876049549487 ], [ -9.253885380566135, 32.358741017246381 ], [ -9.252409652052373, 32.358777016097989 ], [ -9.250959923990331, 32.358832217452026 ], [ -9.249075427747755, 32.358841459286403 ], [ -9.246795305552732, 32.35888448459761 ], [ -9.24399921672927, 32.358840369641101 ], [ -9.242062821826631, 32.358849607088565 ], [ -9.240236831402079, 32.35890540678772 ], [ -9.235378069344602, 32.35895586416212 ], [ -9.230873158253228, 32.359126622338778 ], [ -9.226899943758493, 32.359202659729867 ], [ -9.221142762061627, 32.35928721873583 ], [ -9.219595577115138, 32.359292675149661 ], [ -9.218006165759551, 32.359273407914948 ], [ -9.213309552473145, 32.359325487880085 ] ] ] } },
{ "type": "Feature", "properties": { "datetime": "2025-12-18T11:22:03Z", "platform": "WV02", "gsd": 0.51, "ard_metadata_version": "0.0.1", "catalog_id": "10300101205D7300", "utm_zone": 29, "quadkey": "031311331122", "view:off_nadir": 19.4, "view:azimuth": 185.8, "view:incidence_angle": 68.2, "view:sun_azimuth": 160.6, "view:sun_elevation": 31.9, "proj:geometry": { "type": "Polygon", "coordinates": [ [ [ 485151.06201171875, 3580337.2192382812 ], [ 485156.25, 3580337.2192382812 ], [ 485156.25, 3579843.75 ], [ 479843.75, 3579843.75 ], [ 479843.75, 3580284.7290039062 ], [ 480371.7041015625, 3580282.8979492188 ], [ 480748.291015625, 3580284.423828125 ], [ 481109.619140625, 3580289.0014648438 ], [ 481382.75146484375, 3580286.865234375 ], [ 481824.3408203125, 3580288.0859375 ], [ 481938.78173828125, 3580286.5600585938 ], [ 482205.810546875, 3580291.1376953125 ], [ 482431.33544921875, 3580290.8325195312 ], [ 482567.138671875, 3580293.8842773438 ], [ 482633.36181640625, 3580293.5791015625 ], [ 482704.77294921875, 3580290.52734375 ], [ 482767.9443359375, 3580289.9169921875 ], [ 483118.59130859375, 3580292.96875 ], [ 483185.72998046875, 3580294.7998046875 ], [ 483367.61474609375, 3580294.4946289062 ], [ 483809.50927734375, 3580302.734375 ], [ 483932.18994140625, 3580307.6171875 ], [ 484077.45361328125, 3580309.1430664062 ], [ 484268.49365234375, 3580316.7724609375 ], [ 484415.58837890625, 3580320.4345703125 ], [ 484506.2255859375, 3580320.4345703125 ], [ 484824.21875, 3580326.8432617188 ], [ 485040.8935546875, 3580334.7778320312 ], [ 485151.06201171875, 3580337.2192382812 ] ] ] }, "grid:code": "MXRA-Z29-031311331122", "proj:bbox": "479843.75,3579843.75,485156.25,3580337.2192382812", "tile:data_area": 2.4, "tile:clouds_area": 0.5, "tile:clouds_percent": 22, "proj:code": "EPSG:32629", "visual": "https://maxar-opendata.s3.amazonaws.com/events/Morocco-Flooding-Dec-2025/ard/29/031311331122/2025-12-18/10300101205D7300-visual.tif", "ms_analytic": "https://maxar-opendata.s3.amazonaws.com/events/Morocco-Flooding-Dec-2025/ard/29/031311331122/2025-12-18/10300101205D7300-ms.tif", "pan_analytic": "https://maxar-opendata.s3.amazonaws.com/events/Morocco-Flooding-Dec-2025/ard/29/031311331122/2025-12-18/10300101205D7300-pan.tif", "data-mask": "https://maxar-opendata.s3.amazonaws.com/events/Morocco-Flooding-Dec-2025/ard/29/031311331122/2025-12-18/10300101205D7300-data-mask.gpkg" }, "geometry": { "type": "Polygon", "coordinates": [ [ [ -9.157825378322521, 32.359875146518796 ], [ -9.157770236766677, 32.359875215509518 ], [ -9.157762507459427, 32.355423496845688 ], [ -9.214224583907955, 32.355340237318096 ], [ -9.214233962917067, 32.35931841489792 ], [ -9.208622511855138, 32.359311303335332 ], [ -9.204619950205194, 32.359331625941415 ], [ -9.200779626621888, 32.359379094109435 ], [ -9.197876566275465, 32.359364410677095 ], [ -9.193183105961126, 32.35938269933542 ], [ -9.191966727874178, 32.359370791230681 ], [ -9.189128666155209, 32.359416375157949 ], [ -9.187124110382827, 32.359413859037431 ], [ -9.185288294728323, 32.359446853262043 ], [ -9.18315393298292, 32.359414180833838 ], [ -9.178713530261311, 32.359464600211766 ], [ -9.176780337513915, 32.35946457162602 ], [ -9.172083740212422, 32.359545400283032 ], [ -9.170779893007403, 32.359591221774252 ], [ -9.16923596083544, 32.359607068324216 ], [ -9.167205587808162, 32.359678603355654 ], [ -9.165642226780548, 32.35971370321419 ], [ -9.164678873419243, 32.359714964755923 ], [ -9.161299129783679, 32.359777147075341 ], [ -9.157825378322521, 32.359875146518796 ] ] ] } },
{ "type": "Feature", "properties": { "datetime": "2025-12-18T11:22:03Z", "platform": "WV02", "gsd": 0.51, "ard_metadata_version": "0.0.1", "catalog_id": "10300101205D7300", "utm_zone": 29, "quadkey": "031311331123", "view:off_nadir": 19.4, "view:azimuth": 186.4, "view:incidence_angle": 68.2, "view:sun_azimuth": 160.6, "view:sun_elevation": 31.9, "proj:geometry": { "type": "Polygon", "coordinates": [ [ [ 487095.64208984375, 3580362.8540039062 ], [ 487102.05078125, 3580362.8540039062 ], [ 487100.52490234375, 3579843.75 ], [ 484843.75, 3579843.75 ], [ 484843.75, 3580327.4536132812 ], [ 485040.58837890625, 3580334.7778320312 ], [ 485494.68994140625, 3580346.0693359375 ], [ 485702.20947265625, 3580347.2900390625 ], [ 485842.59033203125, 3580350.9521484375 ], [ 486047.05810546875, 3580347.900390625 ], [ 486188.3544921875, 3580347.5952148438 ], [ 486385.80322265625, 3580351.2573242188 ], [ 486695.25146484375, 3580360.107421875 ], [ 487095.64208984375, 3580362.8540039062 ] ] ] }, "grid:code": "MXRA-Z29-031311331123", "proj:bbox": "484843.75,3579843.75,487102.05078125,3580362.8540039062", "tile:data_area": 1.1, "tile:clouds_area": 0.0, "tile:clouds_percent": 0, "proj:code": "EPSG:32629", "visual": "https://maxar-opendata.s3.amazonaws.com/events/Morocco-Flooding-Dec-2025/ard/29/031311331123/2025-12-18/10300101205D7300-visual.tif", "ms_analytic": "https://maxar-opendata.s3.amazonaws.com/events/Morocco-Flooding-Dec-2025/ard/29/031311331123/2025-12-18/10300101205D7300-ms.tif", "pan_analytic": "https://maxar-opendata.s3.amazonaws.com/events/Morocco-Flooding-Dec-2025/ard/29/031311331123/2025-12-18/10300101205D7300-pan.tif", "data-mask": "https://maxar-opendata.s3.amazonaws.com/events/Morocco-Flooding-Dec-2025/ard/29/031311331123/2025-12-18/10300101205D7300-data-mask.gpkg" }, "geometry": { "type": "Polygon", "coordinates": [ [ [ -9.137157362214262, 32.36013057510695 ], [ -9.137089245919716, 32.360130649165399 ], [ -9.137098398201623, 32.355447650502462 ], [ -9.161083812235193, 32.355419298876924 ], [ -9.161091548064446, 32.359782918539395 ], [ -9.158999530512649, 32.359851647126618 ], [ -9.154173196224331, 32.359959503150478 ], [ -9.151967549834676, 32.359973192400624 ], [ -9.150475536832801, 32.360008018285733 ], [ -9.146800458349867, 32.359982065622056 ], [ -9.14470188455236, 32.360017527763638 ], [ -9.141412969741307, 32.360101097607135 ], [ -9.137157362214262, 32.36013057510695 ] ] ] } },
{ "type": "Feature", "properties": { "datetime": "2025-12-18T11:22:03Z", "platform": "WV02", "gsd": 0.51, "ard_metadata_version": "0.0.1", "catalog_id": "10300101205D7300", "utm_zone": 29, "quadkey": "031311331201", "view:off_nadir": 19.3, "view:azimuth": 183.4, "view:incidence_angle": 68.3, "view:sun_azimuth": 160.6, "view:sun_elevation": 31.9, "proj:geometry": { "type": "Polygon", "coordinates": [ [ [ 469630.7373046875, 3580156.25 ], [ 470156.25, 3580156.25 ], [ 470156.25, 3574843.75 ], [ 469627.0751953125, 3574843.75 ], [ 469630.7373046875, 3580156.25 ] ] ] }, "grid:code": "MXRA-Z29-031311331201", "proj:bbox": "469627.0751953125,3574843.75,470156.25,3580156.25", "tile:data_area": 2.8, "tile:clouds_area": 2.7, "tile:clouds_percent": 99, "proj:code": "EPSG:32629", "visual": "https://maxar-opendata.s3.amazonaws.com/events/Morocco-Flooding-Dec-2025/ard/29/031311331201/2025-12-18/10300101205D7300-visual.tif", "ms_analytic": "https://maxar-opendata.s3.amazonaws.com/events/Morocco-Flooding-Dec-2025/ard/29/031311331201/2025-12-18/10300101205D7300-ms.tif", "pan_analytic": "https://maxar-opendata.s3.amazonaws.com/events/Morocco-Flooding-Dec-2025/ard/29/031311331201/2025-12-18/10300101205D7300-pan.tif", "data-mask": "https://maxar-opendata.s3.amazonaws.com/events/Morocco-Flooding-Dec-2025/ard/29/031311331201/2025-12-18/10300101205D7300-data-mask.gpkg" }, "geometry": { "type": "Polygon", "coordinates": [ [ [ -9.322779270468647, 32.357928288617529 ], [ -9.317193940616724, 32.357942458981462 ], [ -9.317026840227227, 32.310017342440439 ], [ -9.322648129446373, 32.310003098703618 ], [ -9.322779270468647, 32.357928288617529 ] ] ] } },
{ "type": "Feature", "properties": { "datetime": "2025-12-18T11:22:03Z", "platform": "WV02", "gsd": 0.51, "ard_metadata_version": "0.0.1", "catalog_id": "10300101205D7300", "utm_zone": 29, "quadkey": "031311331203", "view:off_nadir": 19.1, "view:azimuth": 183.6, "view:incidence_angle": 68.4, "view:sun_azimuth": 160.6, "view:sun_elevation": 31.9, "proj:geometry": { "type": "Polygon", "coordinates": [ [ [ 469627.38037109375, 3575156.25 ], [ 470156.25, 3575156.25 ], [ 470156.25, 3569843.75 ], [ 469621.58203125, 3569843.75 ], [ 469627.38037109375, 3575156.25 ] ] ] }, "grid:code": "MXRA-Z29-031311331203", "proj:bbox": "469621.58203125,3569843.75,470156.25,3575156.25", "tile:data_area": 2.8, "tile:clouds_area": 2.1, "tile:clouds_percent": 74, "proj:code": "EPSG:32629", "visual": "https://maxar-opendata.s3.amazonaws.com/events/Morocco-Flooding-Dec-2025/ard/29/031311331203/2025-12-18/10300101205D7300-visual.tif", "ms_analytic": "https://maxar-opendata.s3.amazonaws.com/events/Morocco-Flooding-Dec-2025/ard/29/031311331203/2025-12-18/10300101205D7300-ms.tif", "pan_analytic": "https://maxar-opendata.s3.amazonaws.com/events/Morocco-Flooding-Dec-2025/ard/29/031311331203/2025-12-18/10300101205D7300-pan.tif", "data-mask": "https://maxar-opendata.s3.amazonaws.com/events/Morocco-Flooding-Dec-2025/ard/29/031311331203/2025-12-18/10300101205D7300-data-mask.gpkg" }, "geometry": { "type": "Polygon", "coordinates": [ [ [ -9.322654880079856, 32.312822240061401 ], [ -9.31703665867825, 32.312836477053771 ], [ -9.316869931472153, 32.264911016829281 ], [ -9.322546762198703, 32.264896648853885 ], [ -9.322654880079856, 32.312822240061401 ] ] ] } },
{ "type": "Feature", "properties": { "datetime": "2025-12-18T11:22:03Z", "platform": "WV02", "gsd": 0.51, "ard_metadata_version": "0.0.1", "catalog_id": "10300101205D7300", "utm_zone": 29, "quadkey": "031311331210", "view:off_nadir": 19.3, "view:azimuth": 183.7, "view:incidence_angle": 68.3, "view:sun_azimuth": 160.6, "view:sun_elevation": 31.9, "proj:geometry": { "type": "Polygon", "coordinates": [ [ [ 469843.75, 3580156.25 ], [ 469843.75, 3574843.75 ], [ 475156.25, 3574843.75 ], [ 475156.25, 3580156.25 ], [ 469843.75, 3580156.25 ] ] ] }, "grid:code": "MXRA-Z29-031311331210", "proj:bbox": "469843.75,3574843.75,475156.25,3580156.25", "tile:data_area": 28.2, "tile:clouds_area": 17.4, "tile:clouds_percent": 61, "proj:code": "EPSG:32629", "visual": "https://maxar-opendata.s3.amazonaws.com/events/Morocco-Flooding-Dec-2025/ard/29/031311331210/2025-12-18/10300101205D7300-visual.tif", "ms_analytic": "https://maxar-opendata.s3.amazonaws.com/events/Morocco-Flooding-Dec-2025/ard/29/031311331210/2025-12-18/10300101205D7300-ms.tif", "pan_analytic": "https://maxar-opendata.s3.amazonaws.com/events/Morocco-Flooding-Dec-2025/ard/29/031311331210/2025-12-18/10300101205D7300-pan.tif", "data-mask": "https://maxar-opendata.s3.amazonaws.com/events/Morocco-Flooding-Dec-2025/ard/29/031311331210/2025-12-18/10300101205D7300-data-mask.gpkg" }, "geometry": { "type": "Polygon", "coordinates": [ [ [ -9.32051529867876, 32.35793406227873 ], [ -9.320346448642955, 32.310008961179598 ], [ -9.263912928763709, 32.310139569613156 ], [ -9.264052034429694, 32.35806491134948 ], [ -9.32051529867876, 32.35793406227873 ] ] ] } },
{ "type": "Feature", "properties": { "datetime": "2025-12-18T11:22:03Z", "platform": "WV02", "gsd": 0.51, "ard_metadata_version": "0.0.1", "catalog_id": "10300101205D7300", "utm_zone": 29, "quadkey": "031311331211", "view:off_nadir": 19.3, "view:azimuth": 184.8, "view:incidence_angle": 68.3, "view:sun_azimuth": 160.6, "view:sun_elevation": 31.9, "proj:geometry": { "type": "Polygon", "coordinates": [ [ [ 474843.75, 3580156.25 ], [ 474843.75, 3574843.75 ], [ 480156.25, 3574843.75 ], [ 480156.25, 3580156.25 ], [ 474843.75, 3580156.25 ] ] ] }, "grid:code": "MXRA-Z29-031311331211", "proj:bbox": "474843.75,3574843.75,480156.25,3580156.25", "tile:data_area": 28.2, "tile:clouds_area": 9.2, "tile:clouds_percent": 32, "proj:code": "EPSG:32629", "visual": "https://maxar-opendata.s3.amazonaws.com/events/Morocco-Flooding-Dec-2025/ard/29/031311331211/2025-12-18/10300101205D7300-visual.tif", "ms_analytic": "https://maxar-opendata.s3.amazonaws.com/events/Morocco-Flooding-Dec-2025/ard/29/031311331211/2025-12-18/10300101205D7300-ms.tif", "pan_analytic": "https://maxar-opendata.s3.amazonaws.com/events/Morocco-Flooding-Dec-2025/ard/29/031311331211/2025-12-18/10300101205D7300-pan.tif", "data-mask": "https://maxar-opendata.s3.amazonaws.com/events/Morocco-Flooding-Dec-2025/ard/29/031311331211/2025-12-18/10300101205D7300-data-mask.gpkg" }, "geometry": { "type": "Polygon", "coordinates": [ [ [ -9.267373412762307, 32.358057914048437 ], [ -9.267232557406247, 32.310132585180483 ], [ -9.210798724929091, 32.310239447302571 ], [ -9.210909835238928, 32.358164973057221 ], [ -9.267373412762307, 32.358057914048437 ] ] ] } },
{ "type": "Feature", "properties": { "datetime": "2025-12-18T11:22:03Z", "platform": "WV02", "gsd": 0.51, "ard_metadata_version": "0.0.1", "catalog_id": "10300101205D7300", "utm_zone": 29, "quadkey": "031311331212", "view:off_nadir": 19.1, "view:azimuth": 183.9, "view:incidence_angle": 68.4, "view:sun_azimuth": 160.6, "view:sun_elevation": 31.9, "proj:geometry": { "type": "Polygon", "coordinates": [ [ [ 469843.75, 3575156.25 ], [ 469843.75, 3569843.75 ], [ 475156.25, 3569843.75 ], [ 475156.25, 3575156.25 ], [ 469843.75, 3575156.25 ] ] ] }, "grid:code": "MXRA-Z29-031311331212", "proj:bbox": "469843.75,3569843.75,475156.25,3575156.25", "tile:data_area": 28.2, "tile:clouds_area": 24.6, "tile:clouds_percent": 87, "proj:code": "EPSG:32629", "visual": "https://maxar-opendata.s3.amazonaws.com/events/Morocco-Flooding-Dec-2025/ard/29/031311331212/2025-12-18/10300101205D7300-visual.tif", "ms_analytic": "https://maxar-opendata.s3.amazonaws.com/events/Morocco-Flooding-Dec-2025/ard/29/031311331212/2025-12-18/10300101205D7300-ms.tif", "pan_analytic": "https://maxar-opendata.s3.amazonaws.com/events/Morocco-Flooding-Dec-2025/ard/29/031311331212/2025-12-18/10300101205D7300-pan.tif", "data-mask": "https://maxar-opendata.s3.amazonaws.com/events/Morocco-Flooding-Dec-2025/ard/29/031311331212/2025-12-18/10300101205D7300-data-mask.gpkg" }, "geometry": { "type": "Polygon", "coordinates": [ [ [ -9.320356369899347, 32.31282809488502 ], [ -9.3201878969543, 32.264902650087443 ], [ -9.263782307304782, 32.265033032265578 ], [ -9.263921102306371, 32.312958717466827 ], [ -9.320356369899347, 32.31282809488502 ] ] ] } },
{ "type": "Feature", "properties": { "datetime": "2025-12-18T11:22:03Z", "platform": "WV02", "gsd": 0.51, "ard_metadata_version": "0.0.1", "catalog_id": "10300101205D7300", "utm_zone": 29, "quadkey": "031311331213", "view:off_nadir": 19.2, "view:azimuth": 185.0, "view:incidence_angle": 68.4, "view:sun_azimuth": 160.6, "view:sun_elevation": 31.9, "proj:geometry": { "type": "Polygon", "coordinates": [ [ [ 474843.75, 3575156.25 ], [ 474843.75, 3569843.75 ], [ 480156.25, 3569843.75 ], [ 480156.25, 3575156.25 ], [ 474843.75, 3575156.25 ] ] ] }, "grid:code": "MXRA-Z29-031311331213", "proj:bbox": "474843.75,3569843.75,480156.25,3575156.25", "tile:data_area": 28.2, "tile:clouds_area": 3.5, "tile:clouds_percent": 12, "proj:code": "EPSG:32629", "visual": "https://maxar-opendata.s3.amazonaws.com/events/Morocco-Flooding-Dec-2025/ard/29/031311331213/2025-12-18/10300101205D7300-visual.tif", "ms_analytic": "https://maxar-opendata.s3.amazonaws.com/events/Morocco-Flooding-Dec-2025/ard/29/031311331213/2025-12-18/10300101205D7300-ms.tif", "pan_analytic": "https://maxar-opendata.s3.amazonaws.com/events/Morocco-Flooding-Dec-2025/ard/29/031311331213/2025-12-18/10300101205D7300-pan.tif", "data-mask": "https://maxar-opendata.s3.amazonaws.com/events/Morocco-Flooding-Dec-2025/ard/29/031311331213/2025-12-18/10300101205D7300-data-mask.gpkg" }, "geometry": { "type": "Polygon", "coordinates": [ [ [ -9.267240833756848, 32.312951732277561 ], [ -9.267100292972689, 32.265026059932175 ], [ -9.210694391359674, 32.265132736934575 ], [ -9.210805253526237, 32.313058605975591 ], [ -9.267240833756848, 32.312951732277561 ] ] ] } },
{ "type": "Feature", "properties": { "datetime": "2025-12-18T11:22:04Z", "platform": "WV02", "gsd": 0.51, "ard_metadata_version": "0.0.1", "catalog_id": "10300101205D7300", "utm_zone": 29, "quadkey": "031311331221", "view:off_nadir": 19.0, "view:azimuth": 183.7, "view:incidence_angle": 68.6, "view:sun_azimuth": 160.6, "view:sun_elevation": 31.9, "proj:geometry": { "type": "Polygon", "coordinates": [ [ [ 469621.88720703125, 3570156.25 ], [ 470156.25, 3570156.25 ], [ 470156.25, 3564843.75 ], [ 469615.78369140625, 3564843.75 ], [ 469621.88720703125, 3570156.25 ] ] ] }, "grid:code": "MXRA-Z29-031311331221", "proj:bbox": "469615.78369140625,3564843.75,470156.25,3570156.25", "tile:data_area": 2.8, "tile:clouds_area": 2.5, "tile:clouds_percent": 88, "proj:code": "EPSG:32629", "visual": "https://maxar-opendata.s3.amazonaws.com/events/Morocco-Flooding-Dec-2025/ard/29/031311331221/2025-12-18/10300101205D7300-visual.tif", "ms_analytic": "https://maxar-opendata.s3.amazonaws.com/events/Morocco-Flooding-Dec-2025/ard/29/031311331221/2025-12-18/10300101205D7300-ms.tif", "pan_analytic": "https://maxar-opendata.s3.amazonaws.com/events/Morocco-Flooding-Dec-2025/ard/29/031311331221/2025-12-18/10300101205D7300-pan.tif", "data-mask": "https://maxar-opendata.s3.amazonaws.com/events/Morocco-Flooding-Dec-2025/ard/29/031311331221/2025-12-18/10300101205D7300-data-mask.gpkg" }, "geometry": { "type": "Polygon", "coordinates": [ [ [ -9.322553493921468, 32.267715810393341 ], [ -9.316879727993514, 32.267730171651799 ], [ -9.316713373213425, 32.219804367999117 ], [ -9.322448932629177, 32.219789867989782 ], [ -9.322553493921468, 32.267715810393341 ] ] ] } },
{ "type": "Feature", "properties": { "datetime": "2025-12-18T11:22:04Z", "platform": "WV02", "gsd": 0.51, "ard_metadata_version": "0.0.1", "catalog_id": "10300101205D7300", "utm_zone": 29, "quadkey": "031311331223", "view:off_nadir": 19.0, "view:azimuth": 184.0, "view:incidence_angle": 68.6, "view:sun_azimuth": 160.6, "view:sun_elevation": 32.0, "proj:geometry": { "type": "Polygon", "coordinates": [ [ [ 469616.39404296875, 3565156.25 ], [ 470156.25, 3565156.25 ], [ 470156.25, 3564741.2109375 ], [ 469616.0888671875, 3564734.8022460938 ], [ 469616.39404296875, 3565156.25 ] ] ] }, "grid:code": "MXRA-Z29-031311331223", "proj:bbox": "469616.0888671875,3564734.8022460938,470156.25,3565156.25", "tile:data_area": 0.2, "tile:clouds_area": 0.1, "tile:clouds_percent": 83, "proj:code": "EPSG:32629", "visual": "https://maxar-opendata.s3.amazonaws.com/events/Morocco-Flooding-Dec-2025/ard/29/031311331223/2025-12-18/10300101205D7300-visual.tif", "ms_analytic": "https://maxar-opendata.s3.amazonaws.com/events/Morocco-Flooding-Dec-2025/ard/29/031311331223/2025-12-18/10300101205D7300-ms.tif", "pan_analytic": "https://maxar-opendata.s3.amazonaws.com/events/Morocco-Flooding-Dec-2025/ard/29/031311331223/2025-12-18/10300101205D7300-pan.tif", "data-mask": "https://maxar-opendata.s3.amazonaws.com/events/Morocco-Flooding-Dec-2025/ard/29/031311331223/2025-12-18/10300101205D7300-data-mask.gpkg" }, "geometry": { "type": "Polygon", "coordinates": [ [ [ -9.322452406876685, 32.222609057956795 ], [ -9.316723147849601, 32.22262354301575 ], [ -9.31671016620866, 32.218879325921883 ], [ -9.32244222492335, 32.21880701958721 ], [ -9.322452406876685, 32.222609057956795 ] ] ] } },
{ "type": "Feature", "properties": { "datetime": "2025-12-18T11:22:04Z", "platform": "WV02", "gsd": 0.51, "ard_metadata_version": "0.0.1", "catalog_id": "10300101205D7300", "utm_zone": 29, "quadkey": "031311331230", "view:off_nadir": 19.0, "view:azimuth": 184.1, "view:incidence_angle": 68.6, "view:sun_azimuth": 160.6, "view:sun_elevation": 31.9, "proj:geometry": { "type": "Polygon", "coordinates": [ [ [ 469843.75, 3570156.25 ], [ 469843.75, 3564843.75 ], [ 475156.25, 3564843.75 ], [ 475156.25, 3570156.25 ], [ 469843.75, 3570156.25 ] ] ] }, "grid:code": "MXRA-Z29-031311331230", "proj:bbox": "469843.75,3564843.75,475156.25,3570156.25", "tile:data_area": 28.2, "tile:clouds_area": 8.6, "tile:clouds_percent": 30, "proj:code": "EPSG:32629", "visual": "https://maxar-opendata.s3.amazonaws.com/events/Morocco-Flooding-Dec-2025/ard/29/031311331230/2025-12-18/10300101205D7300-visual.tif", "ms_analytic": "https://maxar-opendata.s3.amazonaws.com/events/Morocco-Flooding-Dec-2025/ard/29/031311331230/2025-12-18/10300101205D7300-ms.tif", "pan_analytic": "https://maxar-opendata.s3.amazonaws.com/events/Morocco-Flooding-Dec-2025/ard/29/031311331230/2025-12-18/10300101205D7300-pan.tif", "data-mask": "https://maxar-opendata.s3.amazonaws.com/events/Morocco-Flooding-Dec-2025/ard/29/031311331230/2025-12-18/10300101205D7300-data-mask.gpkg" }, "geometry": { "type": "Polygon", "coordinates": [ [ [ -9.320197796051419, 32.267721804002925 ], [ -9.320029699431807, 32.219796015762206 ], [ -9.263651977623924, 32.219926171904049 ], [ -9.263790462591633, 32.267852200315588 ], [ -9.320197796051419, 32.267721804002925 ] ] ] } },
{ "type": "Feature", "properties": { "datetime": "2025-12-18T11:22:04Z", "platform": "WV02", "gsd": 0.51, "ard_metadata_version": "0.0.1", "catalog_id": "10300101205D7300", "utm_zone": 29, "quadkey": "031311331231", "view:off_nadir": 19.1, "view:azimuth": 185.2, "view:incidence_angle": 68.5, "view:sun_azimuth": 160.6, "view:sun_elevation": 31.9, "proj:geometry": { "type": "Polygon", "coordinates": [ [ [ 474843.75, 3570156.25 ], [ 474843.75, 3564843.75 ], [ 480156.25, 3564843.75 ], [ 480156.25, 3570156.25 ], [ 474843.75, 3570156.25 ] ] ] }, "grid:code": "MXRA-Z29-031311331231", "proj:bbox": "474843.75,3564843.75,480156.25,3570156.25", "tile:data_area": 28.2, "tile:clouds_area": 1.3, "tile:clouds_percent": 4, "proj:code": "EPSG:32629", "visual": "https://maxar-opendata.s3.amazonaws.com/events/Morocco-Flooding-Dec-2025/ard/29/031311331231/2025-12-18/10300101205D7300-visual.tif", "ms_analytic": "https://maxar-opendata.s3.amazonaws.com/events/Morocco-Flooding-Dec-2025/ard/29/031311331231/2025-12-18/10300101205D7300-ms.tif", "pan_analytic": "https://maxar-opendata.s3.amazonaws.com/events/Morocco-Flooding-Dec-2025/ard/29/031311331231/2025-12-18/10300101205D7300-pan.tif", "data-mask": "https://maxar-opendata.s3.amazonaws.com/events/Morocco-Flooding-Dec-2025/ard/29/031311331231/2025-12-18/10300101205D7300-data-mask.gpkg" }, "geometry": { "type": "Polygon", "coordinates": [ [ [ -9.267108550837857, 32.267845227226339 ], [ -9.266968323987152, 32.219919211658222 ], [ -9.21059029084806, 32.220025703720225 ], [ -9.210700905374987, 32.267951915793454 ], [ -9.267108550837857, 32.267845227226339 ] ] ] } },
{ "type": "Feature", "properties": { "datetime": "2025-12-18T11:22:04Z", "platform": "WV02", "gsd": 0.51, "ard_metadata_version": "0.0.1", "catalog_id": "10300101205D7300", "utm_zone": 29, "quadkey": "031311331232", "view:off_nadir": 19.0, "view:azimuth": 184.1, "view:incidence_angle": 68.6, "view:sun_azimuth": 160.6, "view:sun_elevation": 32.0, "proj:geometry": { "type": "Polygon", "coordinates": [ [ [ 469843.75, 3565156.25 ], [ 469843.75, 3564737.548828125 ], [ 475156.25, 3564800.4150390625 ], [ 475156.25, 3565156.25 ], [ 469843.75, 3565156.25 ] ] ] }, "grid:code": "MXRA-Z29-031311331232", "proj:bbox": "469843.75,3564737.548828125,475156.25,3565156.25", "tile:data_area": 2.0, "tile:clouds_area": 1.1, "tile:clouds_percent": 55, "proj:code": "EPSG:32629", "visual": "https://maxar-opendata.s3.amazonaws.com/events/Morocco-Flooding-Dec-2025/ard/29/031311331232/2025-12-18/10300101205D7300-visual.tif", "ms_analytic": "https://maxar-opendata.s3.amazonaws.com/events/Morocco-Flooding-Dec-2025/ard/29/031311331232/2025-12-18/10300101205D7300-ms.tif", "pan_analytic": "https://maxar-opendata.s3.amazonaws.com/events/Morocco-Flooding-Dec-2025/ard/29/031311331232/2025-12-18/10300101205D7300-pan.tif", "data-mask": "https://maxar-opendata.s3.amazonaws.com/events/Morocco-Flooding-Dec-2025/ard/29/031311331232/2025-12-18/10300101205D7300-data-mask.gpkg" }, "geometry": { "type": "Polygon", "coordinates": [ [ [ -9.320039576414594, 32.222615189872691 ], [ -9.320026343115279, 32.218837936773348 ], [ -9.263650849331245, 32.219535229686485 ], [ -9.263660114691991, 32.222745360135399 ], [ -9.320039576414594, 32.222615189872691 ] ] ] } },
{ "type": "Feature", "properties": { "datetime": "2025-12-18T11:22:04Z", "platform": "WV02", "gsd": 0.51, "ard_metadata_version": "0.0.1", "catalog_id": "10300101205D7300", "utm_zone": 29, "quadkey": "031311331233", "view:off_nadir": 19.0, "view:azimuth": 185.2, "view:incidence_angle": 68.6, "view:sun_azimuth": 160.6, "view:sun_elevation": 32.0, "proj:geometry": { "type": "Polygon", "coordinates": [ [ [ 474843.75, 3565156.25 ], [ 474843.75, 3564796.7529296875 ], [ 476260.07080078125, 3564813.8427734375 ], [ 476311.03515625, 3564813.5375976562 ], [ 476359.55810546875, 3564811.0961914062 ], [ 476613.1591796875, 3564812.9272460938 ], [ 476711.73095703125, 3564808.9599609375 ], [ 476792.29736328125, 3564803.466796875 ], [ 476899.71923828125, 3564803.466796875 ], [ 477676.69677734375, 3564815.0634765625 ], [ 478141.17431640625, 3564816.89453125 ], [ 478402.099609375, 3564816.2841796875 ], [ 478668.8232421875, 3564821.4721679688 ], [ 479077.1484375, 3564823.3032226562 ], [ 479537.9638671875, 3564830.0170898438 ], [ 480156.25, 3564835.5102539062 ], [ 480156.25, 3565156.25 ], [ 474843.75, 3565156.25 ] ] ] }, "grid:code": "MXRA-Z29-031311331233", "proj:bbox": "474843.75,3564796.7529296875,480156.25,3565156.25", "tile:data_area": 1.8, "tile:clouds_area": 0.1, "tile:clouds_percent": 10, "proj:code": "EPSG:32629", "visual": "https://maxar-opendata.s3.amazonaws.com/events/Morocco-Flooding-Dec-2025/ard/29/031311331233/2025-12-18/10300101205D7300-visual.tif", "ms_analytic": "https://maxar-opendata.s3.amazonaws.com/events/Morocco-Flooding-Dec-2025/ard/29/031311331233/2025-12-18/10300101205D7300-ms.tif", "pan_analytic": "https://maxar-opendata.s3.amazonaws.com/events/Morocco-Flooding-Dec-2025/ard/29/031311331233/2025-12-18/10300101205D7300-pan.tif", "data-mask": "https://maxar-opendata.s3.amazonaws.com/events/Morocco-Flooding-Dec-2025/ard/29/031311331233/2025-12-18/10300101205D7300-data-mask.gpkg" }, "geometry": { "type": "Polygon", "coordinates": [ [ [ -9.266976563404386, 32.222738399134442 ], [ -9.266967084955683, 32.219495232182609 ], [ -9.251937137814217, 32.219680255242707 ], [ -9.25088128144173, 32.219657576936214 ], [ -9.248190037911083, 32.219679408171594 ], [ -9.247143868314319, 32.219645667096977 ], [ -9.246288740504532, 32.219597779639855 ], [ -9.245148748738487, 32.219599995529116 ], [ -9.236903507732254, 32.219720335423368 ], [ -9.229205334365391, 32.219745540290155 ], [ -9.22637489431221, 32.219797443891565 ], [ -9.222041654011779, 32.219821648221867 ], [ -9.217151471164438, 32.219890712117021 ], [ -9.210590119487794, 32.219951369353744 ], [ -9.210596790311115, 32.222844902749969 ], [ -9.266976563404386, 32.222738399134442 ] ] ] } },
{ "type": "Feature", "properties": { "datetime": "2025-12-18T11:22:03Z", "platform": "WV02", "gsd": 0.51, "ard_metadata_version": "0.0.1", "catalog_id": "10300101205D7300", "utm_zone": 29, "quadkey": "031311331300", "view:off_nadir": 19.3, "view:azimuth": 185.9, "view:incidence_angle": 68.2, "view:sun_azimuth": 160.6, "view:sun_elevation": 31.9, "proj:geometry": { "type": "Polygon", "coordinates": [ [ [ 479843.75, 3580156.25 ], [ 479843.75, 3574843.75 ], [ 485156.25, 3574843.75 ], [ 485156.25, 3580156.25 ], [ 479843.75, 3580156.25 ] ] ] }, "grid:code": "MXRA-Z29-031311331300", "proj:bbox": "479843.75,3574843.75,485156.25,3580156.25", "tile:data_area": 28.2, "tile:clouds_area": 14.5, "tile:clouds_percent": 51, "proj:code": "EPSG:32629", "visual": "https://maxar-opendata.s3.amazonaws.com/events/Morocco-Flooding-Dec-2025/ard/29/031311331300/2025-12-18/10300101205D7300-visual.tif", "ms_analytic": "https://maxar-opendata.s3.amazonaws.com/events/Morocco-Flooding-Dec-2025/ard/29/031311331300/2025-12-18/10300101205D7300-ms.tif", "pan_analytic": "https://maxar-opendata.s3.amazonaws.com/events/Morocco-Flooding-Dec-2025/ard/29/031311331300/2025-12-18/10300101205D7300-pan.tif", "data-mask": "https://maxar-opendata.s3.amazonaws.com/events/Morocco-Flooding-Dec-2025/ard/29/031311331300/2025-12-18/10300101205D7300-data-mask.gpkg" }, "geometry": { "type": "Polygon", "coordinates": [ [ [ -9.214231230156745, 32.358159375184485 ], [ -9.214118370121025, 32.310233859724612 ], [ -9.157684287562979, 32.310316975129346 ], [ -9.15776740201134, 32.35824264372441 ], [ -9.214231230156745, 32.358159375184485 ] ] ] } },
{ "type": "Feature", "properties": { "datetime": "2025-12-18T11:22:03Z", "platform": "WV02", "gsd": 0.51, "ard_metadata_version": "0.0.1", "catalog_id": "10300101205D7300", "utm_zone": 29, "quadkey": "031311331301", "view:off_nadir": 19.3, "view:azimuth": 186.5, "view:incidence_angle": 68.2, "view:sun_azimuth": 160.6, "view:sun_elevation": 31.9, "proj:geometry": { "type": "Polygon", "coordinates": [ [ [ 484843.75, 3580156.25 ], [ 484843.75, 3574843.75 ], [ 487083.1298828125, 3574843.75 ], [ 487101.74560546875, 3580156.25 ], [ 484843.75, 3580156.25 ] ] ] }, "grid:code": "MXRA-Z29-031311331301", "proj:bbox": "484843.75,3574843.75,487101.74560546875,3580156.25", "tile:data_area": 11.9, "tile:clouds_area": 0.0, "tile:clouds_percent": 0, "proj:code": "EPSG:32629", "visual": "https://maxar-opendata.s3.amazonaws.com/events/Morocco-Flooding-Dec-2025/ard/29/031311331301/2025-12-18/10300101205D7300-visual.tif", "ms_analytic": "https://maxar-opendata.s3.amazonaws.com/events/Morocco-Flooding-Dec-2025/ard/29/031311331301/2025-12-18/10300101205D7300-ms.tif", "pan_analytic": "https://maxar-opendata.s3.amazonaws.com/events/Morocco-Flooding-Dec-2025/ard/29/031311331301/2025-12-18/10300101205D7300-pan.tif", "data-mask": "https://maxar-opendata.s3.amazonaws.com/events/Morocco-Flooding-Dec-2025/ard/29/031311331301/2025-12-18/10300101205D7300-data-mask.gpkg" }, "geometry": { "type": "Polygon", "coordinates": [ [ [ -9.161088809828881, 32.358238445301239 ], [ -9.161003945626781, 32.310312784427303 ], [ -9.137215209542603, 32.310340886235032 ], [ -9.137089677392554, 32.358266814098513 ], [ -9.161088809828881, 32.358238445301239 ] ] ] } },
{ "type": "Feature", "properties": { "datetime": "2025-12-18T11:22:03Z", "platform": "WV02", "gsd": 0.51, "ard_metadata_version": "0.0.1", "catalog_id": "10300101205D7300", "utm_zone": 29, "quadkey": "031311331302", "view:off_nadir": 19.2, "view:azimuth": 186.1, "view:incidence_angle": 68.4, "view:sun_azimuth": 160.6, "view:sun_elevation": 31.9, "proj:geometry": { "type": "Polygon", "coordinates": [ [ [ 479843.75, 3575156.25 ], [ 479843.75, 3569843.75 ], [ 485156.25, 3569843.75 ], [ 485156.25, 3575156.25 ], [ 479843.75, 3575156.25 ] ] ] }, "grid:code": "MXRA-Z29-031311331302", "proj:bbox": "479843.75,3569843.75,485156.25,3575156.25", "tile:data_area": 28.2, "tile:clouds_area": 6.1, "tile:clouds_percent": 21, "proj:code": "EPSG:32629", "visual": "https://maxar-opendata.s3.amazonaws.com/events/Morocco-Flooding-Dec-2025/ard/29/031311331302/2025-12-18/10300101205D7300-visual.tif", "ms_analytic": "https://maxar-opendata.s3.amazonaws.com/events/Morocco-Flooding-Dec-2025/ard/29/031311331302/2025-12-18/10300101205D7300-ms.tif", "pan_analytic": "https://maxar-opendata.s3.amazonaws.com/events/Morocco-Flooding-Dec-2025/ard/29/031311331302/2025-12-18/10300101205D7300-pan.tif", "data-mask": "https://maxar-opendata.s3.amazonaws.com/events/Morocco-Flooding-Dec-2025/ard/29/031311331302/2025-12-18/10300101205D7300-data-mask.gpkg" }, "geometry": { "type": "Polygon", "coordinates": [ [ [ -9.214125001528213, 32.313053017792349 ], [ -9.214012393543388, 32.265127159036105 ], [ -9.157606242357021, 32.265210130457852 ], [ -9.157689171184936, 32.313136142200669 ], [ -9.214125001528213, 32.313053017792349 ] ] ] } },
{ "type": "Feature", "properties": { "datetime": "2025-12-18T11:22:03Z", "platform": "WV02", "gsd": 0.51, "ard_metadata_version": "0.0.1", "catalog_id": "10300101205D7300", "utm_zone": 29, "quadkey": "031311331303", "view:off_nadir": 19.2, "view:azimuth": 186.7, "view:incidence_angle": 68.3, "view:sun_azimuth": 160.6, "view:sun_elevation": 31.9, "proj:geometry": { "type": "Polygon", "coordinates": [ [ [ 484843.75, 3575156.25 ], [ 484843.75, 3569843.75 ], [ 487062.68310546875, 3569843.75 ], [ 487084.3505859375, 3575156.25 ], [ 484843.75, 3575156.25 ] ] ] }, "grid:code": "MXRA-Z29-031311331303", "proj:bbox": "484843.75,3569843.75,487084.3505859375,3575156.25", "tile:data_area": 11.8, "tile:clouds_area": 2.1, "tile:clouds_percent": 18, "proj:code": "EPSG:32629", "visual": "https://maxar-opendata.s3.amazonaws.com/events/Morocco-Flooding-Dec-2025/ard/29/031311331303/2025-12-18/10300101205D7300-visual.tif", "ms_analytic": "https://maxar-opendata.s3.amazonaws.com/events/Morocco-Flooding-Dec-2025/ard/29/031311331303/2025-12-18/10300101205D7300-ms.tif", "pan_analytic": "https://maxar-opendata.s3.amazonaws.com/events/Morocco-Flooding-Dec-2025/ard/29/031311331303/2025-12-18/10300101205D7300-pan.tif", "data-mask": "https://maxar-opendata.s3.amazonaws.com/events/Morocco-Flooding-Dec-2025/ard/29/031311331303/2025-12-18/10300101205D7300-data-mask.gpkg" }, "geometry": { "type": "Polygon", "coordinates": [ [ [ -9.161008932060417, 32.313131951044667 ], [ -9.160924257386482, 32.265205947015481 ], [ -9.137364392306134, 32.26523376424656 ], [ -9.137206491391668, 32.313160069993991 ], [ -9.161008932060417, 32.313131951044667 ] ] ] } },
{ "type": "Feature", "properties": { "datetime": "2025-12-18T11:22:04Z", "platform": "WV02", "gsd": 0.51, "ard_metadata_version": "0.0.1", "catalog_id": "10300101205D7300", "utm_zone": 29, "quadkey": "031311331320", "view:off_nadir": 19.1, "view:azimuth": 186.2, "view:incidence_angle": 68.5, "view:sun_azimuth": 160.6, "view:sun_elevation": 31.9, "proj:geometry": { "type": "Polygon", "coordinates": [ [ [ 479843.75, 3570156.25 ], [ 479843.75, 3564843.75 ], [ 485156.25, 3564890.7470703125 ], [ 485156.25, 3570156.25 ], [ 479843.75, 3570156.25 ] ] ] }, "grid:code": "MXRA-Z29-031311331320", "proj:bbox": "479843.75,3564843.75,485156.25,3570156.25", "tile:data_area": 28.0, "tile:clouds_area": 9.6, "tile:clouds_percent": 34, "proj:code": "EPSG:32629", "visual": "https://maxar-opendata.s3.amazonaws.com/events/Morocco-Flooding-Dec-2025/ard/29/031311331320/2025-12-18/10300101205D7300-visual.tif", "ms_analytic": "https://maxar-opendata.s3.amazonaws.com/events/Morocco-Flooding-Dec-2025/ard/29/031311331320/2025-12-18/10300101205D7300-ms.tif", "pan_analytic": "https://maxar-opendata.s3.amazonaws.com/events/Morocco-Flooding-Dec-2025/ard/29/031311331320/2025-12-18/10300101205D7300-pan.tif", "data-mask": "https://maxar-opendata.s3.amazonaws.com/events/Morocco-Flooding-Dec-2025/ard/29/031311331320/2025-12-18/10300101205D7300-data-mask.gpkg" }, "geometry": { "type": "Polygon", "coordinates": [ [ [ -9.214019010139117, 32.267946337290283 ], [ -9.213906653693623, 32.220020135491879 ], [ -9.157529102617035, 32.220526945515246 ], [ -9.157611115071221, 32.26802931770689 ], [ -9.214019010139117, 32.267946337290283 ] ] ] } },
{ "type": "Feature", "properties": { "datetime": "2025-12-18T11:22:04Z", "platform": "WV02", "gsd": 0.51, "ard_metadata_version": "0.0.1", "catalog_id": "10300101205D7300", "utm_zone": 29, "quadkey": "031311331321", "view:off_nadir": 19.1, "view:azimuth": 186.9, "view:incidence_angle": 68.5, "view:sun_azimuth": 160.6, "view:sun_elevation": 31.9, "proj:geometry": { "type": "Polygon", "coordinates": [ [ [ 484843.75, 3570156.25 ], [ 484843.75, 3564886.474609375 ], [ 487045.8984375, 3564916.0766601562 ], [ 487063.90380859375, 3570156.25 ], [ 484843.75, 3570156.25 ] ] ] }, "grid:code": "MXRA-Z29-031311331321", "proj:bbox": "484843.75,3564886.474609375,487063.90380859375,3570156.25", "tile:data_area": 11.6, "tile:clouds_area": 5.9, "tile:clouds_percent": 51, "proj:code": "EPSG:32629", "visual": "https://maxar-opendata.s3.amazonaws.com/events/Morocco-Flooding-Dec-2025/ard/29/031311331321/2025-12-18/10300101205D7300-visual.tif", "ms_analytic": "https://maxar-opendata.s3.amazonaws.com/events/Morocco-Flooding-Dec-2025/ard/29/031311331321/2025-12-18/10300101205D7300-ms.tif", "pan_analytic": "https://maxar-opendata.s3.amazonaws.com/events/Morocco-Flooding-Dec-2025/ard/29/031311331321/2025-12-18/10300101205D7300-pan.tif", "data-mask": "https://maxar-opendata.s3.amazonaws.com/events/Morocco-Flooding-Dec-2025/ard/29/031311331321/2025-12-18/10300101205D7300-data-mask.gpkg" }, "geometry": { "type": "Polygon", "coordinates": [ [ [ -9.160929232682728, 32.268025133810994 ], [ -9.160845425808022, 32.220484225406096 ], [ -9.137475630368343, 32.220778855338132 ], [ -9.137355677794496, 32.268052968153007 ], [ -9.160929232682728, 32.268025133810994 ] ] ] } },
{ "type": "Feature", "properties": { "datetime": "2025-12-18T11:22:04Z", "platform": "WV02", "gsd": 0.51, "ard_metadata_version": "0.0.1", "catalog_id": "10300101205D7300", "utm_zone": 29, "quadkey": "031311331322", "view:off_nadir": 19.1, "view:azimuth": 186.3, "view:incidence_angle": 68.5, "view:sun_azimuth": 160.6, "view:sun_elevation": 32.0, "proj:geometry": { "type": "Polygon", "coordinates": [ [ [ 479843.75, 3565156.25 ], [ 479843.75, 3564832.763671875 ], [ 480163.87939453125, 3564835.5102539062 ], [ 480277.7099609375, 3564840.6982421875 ], [ 480502.3193359375, 3564847.1069335938 ], [ 480584.1064453125, 3564848.9379882812 ], [ 480683.28857421875, 3564848.9379882812 ], [ 480806.884765625, 3564852.294921875 ], [ 481183.16650390625, 3564854.1259765625 ], [ 481651.611328125, 3564859.9243164062 ], [ 482072.1435546875, 3564860.5346679688 ], [ 482232.0556640625, 3564858.0932617188 ], [ 482363.8916015625, 3564859.3139648438 ], [ 482525.0244140625, 3564858.3984375 ], [ 482706.298828125, 3564860.83984375 ], [ 482827.7587890625, 3564865.72265625 ], [ 483269.04296875, 3564862.3657226562 ], [ 483560.48583984375, 3564866.0278320312 ], [ 483723.44970703125, 3564873.6572265625 ], [ 483788.14697265625, 3564873.3520507812 ], [ 483857.72705078125, 3564869.384765625 ], [ 483990.78369140625, 3564869.0795898438 ], [ 484050.59814453125, 3564869.9951171875 ], [ 484294.12841796875, 3564880.0659179688 ], [ 484531.8603515625, 3564886.1694335938 ], [ 484634.3994140625, 3564887.3901367188 ], [ 484963.37890625, 3564886.474609375 ], [ 485156.25, 3564891.357421875 ], [ 485156.25, 3565156.25 ], [ 479843.75, 3565156.25 ] ] ] }, "grid:code": "MXRA-Z29-031311331322", "proj:bbox": "479843.75,3564832.763671875,485156.25,3565156.25", "tile:data_area": 1.5, "tile:clouds_area": 0.0, "tile:clouds_percent": 0, "proj:code": "EPSG:32629", "visual": "https://maxar-opendata.s3.amazonaws.com/events/Morocco-Flooding-Dec-2025/ard/29/031311331322/2025-12-18/10300101205D7300-visual.tif", "ms_analytic": "https://maxar-opendata.s3.amazonaws.com/events/Morocco-Flooding-Dec-2025/ard/29/031311331322/2025-12-18/10300101205D7300-ms.tif", "pan_analytic": "https://maxar-opendata.s3.amazonaws.com/events/Morocco-Flooding-Dec-2025/ard/29/031311331322/2025-12-18/10300101205D7300-pan.tif", "data-mask": "https://maxar-opendata.s3.amazonaws.com/events/Morocco-Flooding-Dec-2025/ard/29/031311331322/2025-12-18/10300101205D7300-data-mask.gpkg" }, "geometry": { "type": "Polygon", "coordinates": [ [ [ -9.213913255507935, 32.22283933391752 ], [ -9.213906421615382, 32.219921023024298 ], [ -9.194721275152792, 32.220197060079308 ], [ -9.177556486971911, 32.220244359928451 ], [ -9.172734328733862, 32.220352907181848 ], [ -9.169897190034735, 32.220315455056728 ], [ -9.164155332503221, 32.220477217429874 ], [ -9.15752911211233, 32.220532451780578 ], [ -9.157533233315586, 32.222922170481887 ], [ -9.213913255507935, 32.22283933391752 ] ] ] } },
{ "type": "Feature", "properties": { "datetime": "2025-12-18T11:22:04Z", "platform": "WV02", "gsd": 0.51, "ard_metadata_version": "0.0.1", "catalog_id": "10300101205D7300", "utm_zone": 29, "quadkey": "031311331323", "view:off_nadir": 19.1, "view:azimuth": 186.8, "view:incidence_angle": 68.5, "view:sun_azimuth": 160.6, "view:sun_elevation": 32.0, "proj:geometry": { "type": "Polygon", "coordinates": [ [ [ 484843.75, 3565156.25 ], [ 484843.75, 3564887.0849609375 ], [ 486275.93994140625, 3564898.0712890625 ], [ 486780.3955078125, 3564915.4663085938 ], [ 487045.8984375, 3564916.6870117188 ], [ 487047.119140625, 3565156.25 ], [ 484843.75, 3565156.25 ] ] ] }, "grid:code": "MXRA-Z29-031311331323", "proj:bbox": "484843.75,3564887.0849609375,487047.119140625,3565156.25", "tile:data_area": 0.5, "tile:clouds_area": 0.0, "tile:clouds_percent": 1, "proj:code": "EPSG:32629", "visual": "https://maxar-opendata.s3.amazonaws.com/events/Morocco-Flooding-Dec-2025/ard/29/031311331323/2025-12-18/10300101205D7300-visual.tif", "ms_analytic": "https://maxar-opendata.s3.amazonaws.com/events/Morocco-Flooding-Dec-2025/ard/29/031311331323/2025-12-18/10300101205D7300-ms.tif", "pan_analytic": "https://maxar-opendata.s3.amazonaws.com/events/Morocco-Flooding-Dec-2025/ard/29/031311331323/2025-12-18/10300101205D7300-pan.tif", "data-mask": "https://maxar-opendata.s3.amazonaws.com/events/Morocco-Flooding-Dec-2025/ard/29/031311331323/2025-12-18/10300101205D7300-data-mask.gpkg" }, "geometry": { "type": "Polygon", "coordinates": [ [ [ -9.160849711333737, 32.222917993839069 ], [ -9.160845435503196, 32.220489731670575 ], [ -9.159575870473271, 32.220485834405565 ], [ -9.157302410394571, 32.220535487222634 ], [ -9.155355959279365, 32.220529634921142 ], [ -9.150196866458728, 32.220596439069425 ], [ -9.148030171291925, 32.22058247604383 ], [ -9.145646547419414, 32.220607269951657 ], [ -9.142437134353829, 32.220679755459884 ], [ -9.140293269238112, 32.22077025339641 ], [ -9.137475638654971, 32.220784361608217 ], [ -9.137465936322165, 32.222945586337651 ], [ -9.160849711333737, 32.222917993839069 ] ] ] } }
]
}
