{
"type": "FeatureCollection",
"name": "10300101205D7300_union",
"features": [
{ "type": "Feature", "properties": { "datetime": "2025-12-18T11:22:03Z", "platform": "WV02", "gsd": 0.51, "ard_metadata_version": "0.0.1", "catalog_id": "10300101205D7300", "utm_zone": 29, "quadkey": "031311331023", "view:off_nadir": 19.3, "view:azimuth": 183.5, "view:incidence_angle": 68.3, "view:sun_azimuth": 160.6, "view:sun_elevation": 31.9, "proj:geometry": null, "grid:code": "MXRA-Z29-031311331023", "proj:bbox": "469630.43212890625,3579843.75,470156.25,3580215.7592773438", "tile:data_area": 0.1, "tile:clouds_area": 0.1, "tile:clouds_percent": 94, "proj:code": "EPSG:32629", "visual": "https://maxar-opendata.s3.amazonaws.com/events/Morocco-Flooding-Dec-2025/ard/29/031311331023/2025-12-18/10300101205D7300-visual.tif", "ms_analytic": "https://maxar-opendata.s3.amazonaws.com/events/Morocco-Flooding-Dec-2025/ard/29/031311331023/2025-12-18/10300101205D7300-ms.tif", "pan_analytic": "https://maxar-opendata.s3.amazonaws.com/events/Morocco-Flooding-Dec-2025/ard/29/031311331023/2025-12-18/10300101205D7300-pan.tif", "data-mask": "https://maxar-opendata.s3.amazonaws.com/events/Morocco-Flooding-Dec-2025/ard/29/031311331023/2025-12-18/10300101205D7300-data-mask.gpkg" }, "geometry": { "type": "Polygon", "coordinates": [ [ [ -9.263650849331245, 32.219535229686485 ], [ -9.31822562055422, 32.218860209413393 ], [ -9.32244222492335, 32.21880701958721 ], [ -9.322444857043415, 32.219789878293227 ], [ -9.322448932629177, 32.219789867989782 ], [ -9.322553493921468, 32.267715810393341 ], [ -9.322553122096753, 32.26771581133449 ], [ -9.322650355279855, 32.310816524514145 ], [ -9.322771556318388, 32.355109169856554 ], [ -9.322772500186348, 32.355109167462068 ], [ -9.32278100149308, 32.35841557655128 ], [ -9.317377452559475, 32.358478844966925 ], [ -9.317195814681673, 32.358479301910279 ], [ -9.317195813071155, 32.358478840530232 ], [ -9.289918442913553, 32.35879272984976 ], [ -9.288770172590974, 32.358778845740638 ], [ -9.285000265363065, 32.358501101855737 ], [ -9.264726074050911, 32.358622507772672 ], [ -9.264413701036124, 32.358625779997354 ], [ -9.264222194640928, 32.35862552510347 ], [ -9.264053666533663, 32.358626534283516 ], [ -9.264053662949317, 32.358625300788773 ], [ -9.261997229177156, 32.358622563687504 ], [ -9.259759404538444, 32.358707031528624 ], [ -9.25753431560933, 32.35870884154626 ], [ -9.256292164539298, 32.358758174011818 ], [ -9.25514718749754, 32.35876049549487 ], [ -9.253885380566135, 32.358741017246381 ], [ -9.252409652052373, 32.358777016097989 ], [ -9.250959923990331, 32.358832217452026 ], [ -9.249075427747755, 32.358841459286403 ], [ -9.246795305552732, 32.35888448459761 ], [ -9.24399921672927, 32.358840369641101 ], [ -9.242062821826631, 32.358849607088565 ], [ -9.240236831402079, 32.35890540678772 ], [ -9.235378069344602, 32.35895586416212 ], [ -9.230873158253228, 32.359126622338778 ], [ -9.226899943758493, 32.359202659729867 ], [ -9.221142762061627, 32.35928721873583 ], [ -9.219595577115138, 32.359292675149661 ], [ -9.218006165759551, 32.359273407914948 ], [ -9.214233955425586, 32.359315237329191 ], [ -9.214233962917067, 32.35931841489792 ], [ -9.213976791541228, 32.359318088976813 ], [ -9.213309552473145, 32.359325487880085 ], [ -9.210912506459898, 32.359315753828383 ], [ -9.210912502866156, 32.359314205510586 ], [ -9.208622511855138, 32.359311303335332 ], [ -9.204619950205194, 32.359331625941415 ], [ -9.200779626621888, 32.359379094109435 ], [ -9.197876566275465, 32.359364410677095 ], [ -9.193183105961126, 32.35938269933542 ], [ -9.191966727874178, 32.359370791230681 ], [ -9.189128666155209, 32.359416375157949 ], [ -9.187124110382827, 32.359413859037431 ], [ -9.185288294728323, 32.359446853262043 ], [ -9.18315393298292, 32.359414180833838 ], [ -9.178713530261311, 32.359464600211766 ], [ -9.176780337513915, 32.35946457162602 ], [ -9.172083740212422, 32.359545400283032 ], [ -9.170779893007403, 32.359591221774252 ], [ -9.16923596083544, 32.359607068324216 ], [ -9.167205587808162, 32.359678603355654 ], [ -9.165642226780548, 32.35971370321419 ], [ -9.164678873419243, 32.359714964755923 ], [ -9.161299129783679, 32.359777147075341 ], [ -9.161073296972608, 32.359783518138457 ], [ -9.158999530512649, 32.359851647126618 ], [ -9.154173196224331, 32.359959503150478 ], [ -9.151967549834676, 32.359973192400624 ], [ -9.150475536832801, 32.360008018285733 ], [ -9.146800458349867, 32.359982065622056 ], [ -9.14470188455236, 32.360017527763638 ], [ -9.141412969741307, 32.360101097607135 ], [ -9.137157362214262, 32.36013057510695 ], [ -9.137089245919716, 32.360130649165399 ], [ -9.137092888538458, 32.358266810302695 ], [ -9.137089677392554, 32.358266814098513 ], [ -9.137207825272405, 32.313160068418213 ], [ -9.137206491391668, 32.313160069993991 ], [ -9.137212998491366, 32.311185026019785 ], [ -9.137215209542603, 32.310340886235032 ], [ -9.137215779647731, 32.310340885561565 ], [ -9.137357600437294, 32.26729524174803 ], [ -9.137470132552503, 32.222945581386163 ], [ -9.137465936322165, 32.222945586337651 ], [ -9.137475587462081, 32.220795764983258 ], [ -9.137475630368343, 32.220778855338132 ], [ -9.141202597652768, 32.220731868357845 ], [ -9.142437134353829, 32.220679755459884 ], [ -9.145646547419414, 32.220607269951657 ], [ -9.148030171291925, 32.22058247604383 ], [ -9.150196866458728, 32.220596439069425 ], [ -9.155355959279365, 32.220529634921142 ], [ -9.156880097484192, 32.220534217474601 ], [ -9.158016592397686, 32.220519889346654 ], [ -9.159575870473271, 32.220485834405565 ], [ -9.160494197027308, 32.220488653451348 ], [ -9.160845425808022, 32.220484225406096 ], [ -9.160845448561982, 32.220497132986431 ], [ -9.164668230794295, 32.220462767812428 ], [ -9.169897190034735, 32.220315455056728 ], [ -9.172734328733862, 32.220352907181848 ], [ -9.177556486971911, 32.220244359928451 ], [ -9.194006437168211, 32.220199029910134 ], [ -9.195546738715993, 32.220185183259318 ], [ -9.210590159528989, 32.219968737605043 ], [ -9.210590119487794, 32.219951369353744 ], [ -9.217151471164438, 32.219890712117021 ], [ -9.222041654011779, 32.219821648221867 ], [ -9.22637489431221, 32.219797443891565 ], [ -9.229205334365391, 32.219745540290155 ], [ -9.236903507732254, 32.219720335423368 ], [ -9.245148748738487, 32.219599995529116 ], [ -9.246288740504532, 32.219597779639855 ], [ -9.247143868314319, 32.219645667096977 ], [ -9.248190037911083, 32.219679408171594 ], [ -9.25088128144173, 32.219657576936214 ], [ -9.251937137814217, 32.219680255242707 ], [ -9.263650851716188, 32.219536055986993 ], [ -9.263650849331245, 32.219535229686485 ] ] ] } }
]
}
