{
"type": "FeatureCollection",
"name": "Morocco-Flooding-Dec-2025",
"crs": { "type": "name", "properties": { "name": "urn:ogc:def:crs:OGC:1.3:CRS84" } },
"features": [
{ "type": "Feature", "properties": { "datetime": "2025-11-11T11:30:25Z", "platform": "WV03", "gsd": 0.33, "ard_metadata_version": "0.0.1", "catalog_id": "10400100AE4DC200", "utm_zone": 29, "quadkey": "031311331201", "view:off_nadir": 13.7, "view:azimuth": 229.3, "view:incidence_angle": 74.9, "view:sun_azimuth": 164.4, "view:sun_elevation": 38.9, "grid:code": "MXRA-Z29-031311331201", "proj:bbox": "469630.43212890625,3574843.75,470156.25,3577415.1611328125", "tile:data_area": 1.3, "tile:clouds_area": 0.0, "tile:clouds_percent": 0, "proj:code": "EPSG:32629", "visual": "https://maxar-opendata.s3.amazonaws.com/events/Morocco-Flooding-Dec-2025/ard/29/031311331201/2025-11-11/10400100AE4DC200-visual.tif", "ms_analytic": "https://maxar-opendata.s3.amazonaws.com/events/Morocco-Flooding-Dec-2025/ard/29/031311331201/2025-11-11/10400100AE4DC200-ms.tif", "pan_analytic": "https://maxar-opendata.s3.amazonaws.com/events/Morocco-Flooding-Dec-2025/ard/29/031311331201/2025-11-11/10400100AE4DC200-pan.tif", "data-mask": "https://maxar-opendata.s3.amazonaws.com/events/Morocco-Flooding-Dec-2025/ard/29/031311331201/2025-11-11/10400100AE4DC200-data-mask.gpkg" }, "geometry": { "type": "Polygon", "coordinates": [ [ [ -9.317182252863793, 32.333214410613408 ], [ -9.317107672321406, 32.333214598072963 ], [ -9.317026840227227, 32.310017342440439 ], [ -9.322612469608048, 32.310003189850796 ], [ -9.322606627948922, 32.333046485937722 ], [ -9.317182252863793, 32.333214410613408 ] ] ] } },
{ "type": "Feature", "properties": { "datetime": "2025-11-11T11:30:25Z", "platform": "WV03", "gsd": 0.33, "ard_metadata_version": "0.0.1", "catalog_id": "10400100AE4DC200", "utm_zone": 29, "quadkey": "031311331203", "view:off_nadir": 13.7, "view:azimuth": 229.3, "view:incidence_angle": 74.9, "view:sun_azimuth": 164.4, "view:sun_elevation": 38.9, "grid:code": "MXRA-Z29-031311331203", "proj:bbox": "469615.478515625,3569843.75,470156.25,3575156.25", "tile:data_area": 2.8, "tile:clouds_area": 0.0, "tile:clouds_percent": 0, "proj:code": "EPSG:32629", "visual": "https://maxar-opendata.s3.amazonaws.com/events/Morocco-Flooding-Dec-2025/ard/29/031311331203/2025-11-11/10400100AE4DC200-visual.tif", "ms_analytic": "https://maxar-opendata.s3.amazonaws.com/events/Morocco-Flooding-Dec-2025/ard/29/031311331203/2025-11-11/10400100AE4DC200-ms.tif", "pan_analytic": "https://maxar-opendata.s3.amazonaws.com/events/Morocco-Flooding-Dec-2025/ard/29/031311331203/2025-11-11/10400100AE4DC200-pan.tif", "data-mask": "https://maxar-opendata.s3.amazonaws.com/events/Morocco-Flooding-Dec-2025/ard/29/031311331203/2025-11-11/10400100AE4DC200-data-mask.gpkg" }, "geometry": { "type": "Polygon", "coordinates": [ [ [ -9.322609493425491, 32.312822356076545 ], [ -9.31703665867825, 32.312836477053771 ], [ -9.316869931472153, 32.264911016829281 ], [ -9.322611566179017, 32.264896483363152 ], [ -9.322609493425491, 32.312822356076545 ] ] ] } },
{ "type": "Feature", "properties": { "datetime": "2025-11-11T11:30:25Z", "platform": "WV03", "gsd": 0.33, "ard_metadata_version": "0.0.1", "catalog_id": "10400100AE4DC200", "utm_zone": 29, "quadkey": "031311331210", "view:off_nadir": 13.7, "view:azimuth": 229.5, "view:incidence_angle": 74.9, "view:sun_azimuth": 164.4, "view:sun_elevation": 38.9, "grid:code": "MXRA-Z29-031311331210", "proj:bbox": "469843.75,3574843.75,475156.25,3577563.1713867188", "tile:data_area": 14.0, "tile:clouds_area": 0.0, "tile:clouds_percent": 0, "proj:code": "EPSG:32629", "visual": "https://maxar-opendata.s3.amazonaws.com/events/Morocco-Flooding-Dec-2025/ard/29/031311331210/2025-11-11/10400100AE4DC200-visual.tif", "ms_analytic": "https://maxar-opendata.s3.amazonaws.com/events/Morocco-Flooding-Dec-2025/ard/29/031311331210/2025-11-11/10400100AE4DC200-ms.tif", "pan_analytic": "https://maxar-opendata.s3.amazonaws.com/events/Morocco-Flooding-Dec-2025/ard/29/031311331210/2025-11-11/10400100AE4DC200-pan.tif", "data-mask": "https://maxar-opendata.s3.amazonaws.com/events/Morocco-Flooding-Dec-2025/ard/29/031311331210/2025-11-11/10400100AE4DC200-data-mask.gpkg" }, "geometry": { "type": "Polygon", "coordinates": [ [ [ -9.264065161923501, 32.334672000741563 ], [ -9.263912928763709, 32.310139569613156 ], [ -9.320346448642955, 32.310008961179598 ], [ -9.320427797328199, 32.333112605614573 ], [ -9.282343138913721, 32.334277276021631 ], [ -9.277851823438382, 32.334221172537092 ], [ -9.264065161923501, 32.334672000741563 ] ] ] } },
{ "type": "Feature", "properties": { "datetime": "2025-11-11T11:30:25Z", "platform": "WV03", "gsd": 0.33, "ard_metadata_version": "0.0.1", "catalog_id": "10400100AE4DC200", "utm_zone": 29, "quadkey": "031311331211", "view:off_nadir": 14.1, "view:azimuth": 230.7, "view:incidence_angle": 74.5, "view:sun_azimuth": 164.4, "view:sun_elevation": 38.9, "grid:code": "MXRA-Z29-031311331211", "proj:bbox": "474843.75,3574843.75,480156.25,3577729.1870117188", "tile:data_area": 14.8, "tile:clouds_area": 0.0, "tile:clouds_percent": 0, "proj:code": "EPSG:32629", "visual": "https://maxar-opendata.s3.amazonaws.com/events/Morocco-Flooding-Dec-2025/ard/29/031311331211/2025-11-11/10400100AE4DC200-visual.tif", "ms_analytic": "https://maxar-opendata.s3.amazonaws.com/events/Morocco-Flooding-Dec-2025/ard/29/031311331211/2025-11-11/10400100AE4DC200-ms.tif", "pan_analytic": "https://maxar-opendata.s3.amazonaws.com/events/Morocco-Flooding-Dec-2025/ard/29/031311331211/2025-11-11/10400100AE4DC200-pan.tif", "data-mask": "https://maxar-opendata.s3.amazonaws.com/events/Morocco-Flooding-Dec-2025/ard/29/031311331211/2025-11-11/10400100AE4DC200-data-mask.gpkg" }, "geometry": { "type": "Polygon", "coordinates": [ [ [ -9.210910925062135, 32.336269727888357 ], [ -9.210859040757819, 32.33626981460953 ], [ -9.210798724929091, 32.310239447302571 ], [ -9.267232557406247, 32.310132585180483 ], [ -9.267304294544159, 32.334555056832066 ], [ -9.256594670640474, 32.334932438662236 ], [ -9.210910925062135, 32.336269727888357 ] ] ] } },
{ "type": "Feature", "properties": { "datetime": "2025-11-11T11:30:25Z", "platform": "WV03", "gsd": 0.33, "ard_metadata_version": "0.0.1", "catalog_id": "10400100AE4DC200", "utm_zone": 29, "quadkey": "031311331212", "view:off_nadir": 13.8, "view:azimuth": 229.6, "view:incidence_angle": 74.8, "view:sun_azimuth": 164.4, "view:sun_elevation": 38.9, "grid:code": "MXRA-Z29-031311331212", "proj:bbox": "469843.75,3569843.75,475156.25,3575156.25", "tile:data_area": 28.2, "tile:clouds_area": 0.0, "tile:clouds_percent": 0, "proj:code": "EPSG:32629", "visual": "https://maxar-opendata.s3.amazonaws.com/events/Morocco-Flooding-Dec-2025/ard/29/031311331212/2025-11-11/10400100AE4DC200-visual.tif", "ms_analytic": "https://maxar-opendata.s3.amazonaws.com/events/Morocco-Flooding-Dec-2025/ard/29/031311331212/2025-11-11/10400100AE4DC200-ms.tif", "pan_analytic": "https://maxar-opendata.s3.amazonaws.com/events/Morocco-Flooding-Dec-2025/ard/29/031311331212/2025-11-11/10400100AE4DC200-pan.tif", "data-mask": "https://maxar-opendata.s3.amazonaws.com/events/Morocco-Flooding-Dec-2025/ard/29/031311331212/2025-11-11/10400100AE4DC200-data-mask.gpkg" }, "geometry": { "type": "Polygon", "coordinates": [ [ [ -9.320356369899347, 32.31282809488502 ], [ -9.3201878969543, 32.264902650087443 ], [ -9.263782307304782, 32.265033032265578 ], [ -9.263921102306371, 32.312958717466827 ], [ -9.320356369899347, 32.31282809488502 ] ] ] } },
{ "type": "Feature", "properties": { "datetime": "2025-11-11T11:30:25Z", "platform": "WV03", "gsd": 0.33, "ard_metadata_version": "0.0.1", "catalog_id": "10400100AE4DC200", "utm_zone": 29, "quadkey": "031311331213", "view:off_nadir": 14.1, "view:azimuth": 230.8, "view:incidence_angle": 74.4, "view:sun_azimuth": 164.4, "view:sun_elevation": 38.9, "grid:code": "MXRA-Z29-031311331213", "proj:bbox": "474843.75,3569843.75,480156.25,3575156.25", "tile:data_area": 28.2, "tile:clouds_area": 0.0, "tile:clouds_percent": 0, "proj:code": "EPSG:32629", "visual": "https://maxar-opendata.s3.amazonaws.com/events/Morocco-Flooding-Dec-2025/ard/29/031311331213/2025-11-11/10400100AE4DC200-visual.tif", "ms_analytic": "https://maxar-opendata.s3.amazonaws.com/events/Morocco-Flooding-Dec-2025/ard/29/031311331213/2025-11-11/10400100AE4DC200-ms.tif", "pan_analytic": "https://maxar-opendata.s3.amazonaws.com/events/Morocco-Flooding-Dec-2025/ard/29/031311331213/2025-11-11/10400100AE4DC200-pan.tif", "data-mask": "https://maxar-opendata.s3.amazonaws.com/events/Morocco-Flooding-Dec-2025/ard/29/031311331213/2025-11-11/10400100AE4DC200-data-mask.gpkg" }, "geometry": { "type": "Polygon", "coordinates": [ [ [ -9.267240833756848, 32.312951732277561 ], [ -9.267100292972689, 32.265026059932175 ], [ -9.210694391359674, 32.265132736934575 ], [ -9.210805253526237, 32.313058605975591 ], [ -9.267240833756848, 32.312951732277561 ] ] ] } },
{ "type": "Feature", "properties": { "datetime": "2025-11-11T11:30:25Z", "platform": "WV03", "gsd": 0.33, "ard_metadata_version": "0.0.1", "catalog_id": "10400100AE4DC200", "utm_zone": 29, "quadkey": "031311331300", "view:off_nadir": 14.4, "view:azimuth": 231.6, "view:incidence_angle": 74.2, "view:sun_azimuth": 164.4, "view:sun_elevation": 38.9, "grid:code": "MXRA-Z29-031311331300", "proj:bbox": "479843.75,3574843.75,483503.41796875,3577841.4916992188", "tile:data_area": 10.7, "tile:clouds_area": 0.0, "tile:clouds_percent": 0, "proj:code": "EPSG:32629", "visual": "https://maxar-opendata.s3.amazonaws.com/events/Morocco-Flooding-Dec-2025/ard/29/031311331300/2025-11-11/10400100AE4DC200-visual.tif", "ms_analytic": "https://maxar-opendata.s3.amazonaws.com/events/Morocco-Flooding-Dec-2025/ard/29/031311331300/2025-11-11/10400100AE4DC200-ms.tif", "pan_analytic": "https://maxar-opendata.s3.amazonaws.com/events/Morocco-Flooding-Dec-2025/ard/29/031311331300/2025-11-11/10400100AE4DC200-pan.tif", "data-mask": "https://maxar-opendata.s3.amazonaws.com/events/Morocco-Flooding-Dec-2025/ard/29/031311331300/2025-11-11/10400100AE4DC200-data-mask.gpkg" }, "geometry": { "type": "Polygon", "coordinates": [ [ [ -9.175417480459107, 32.337337203639485 ], [ -9.175365595437041, 32.337337275767027 ], [ -9.175269340161368, 32.324408901770752 ], [ -9.175300511762844, 32.310293738952154 ], [ -9.214118370121025, 32.310233859724612 ], [ -9.214179389394886, 32.336159604655705 ], [ -9.175417480459107, 32.337337203639485 ] ] ] } },
{ "type": "Feature", "properties": { "datetime": "2025-11-11T11:30:25Z", "platform": "WV03", "gsd": 0.33, "ard_metadata_version": "0.0.1", "catalog_id": "10400100AE4DC200", "utm_zone": 29, "quadkey": "031311331302", "view:off_nadir": 14.4, "view:azimuth": 231.7, "view:incidence_angle": 74.1, "view:sun_azimuth": 164.4, "view:sun_elevation": 38.9, "grid:code": "MXRA-Z29-031311331302", "proj:bbox": "479843.75,3569843.75,483499.45068359375,3575156.25", "tile:data_area": 19.4, "tile:clouds_area": 0.0, "tile:clouds_percent": 0, "proj:code": "EPSG:32629", "visual": "https://maxar-opendata.s3.amazonaws.com/events/Morocco-Flooding-Dec-2025/ard/29/031311331302/2025-11-11/10400100AE4DC200-visual.tif", "ms_analytic": "https://maxar-opendata.s3.amazonaws.com/events/Morocco-Flooding-Dec-2025/ard/29/031311331302/2025-11-11/10400100AE4DC200-ms.tif", "pan_analytic": "https://maxar-opendata.s3.amazonaws.com/events/Morocco-Flooding-Dec-2025/ard/29/031311331302/2025-11-11/10400100AE4DC200-pan.tif", "data-mask": "https://maxar-opendata.s3.amazonaws.com/events/Morocco-Flooding-Dec-2025/ard/29/031311331302/2025-11-11/10400100AE4DC200-data-mask.gpkg" }, "geometry": { "type": "Polygon", "coordinates": [ [ [ -9.214125001528213, 32.313053017792349 ], [ -9.214012393543388, 32.265127159036105 ], [ -9.17522670856326, 32.265186916554683 ], [ -9.175289731215473, 32.313112926019244 ], [ -9.214125001528213, 32.313053017792349 ] ] ] } },
{ "type": "Feature", "properties": { "datetime": "2025-11-11T11:30:26Z", "platform": "WV03", "gsd": 0.33, "ard_metadata_version": "0.0.1", "catalog_id": "10400100AE4DC200", "utm_zone": 29, "quadkey": "031311331221", "view:off_nadir": 13.8, "view:azimuth": 229.6, "view:incidence_angle": 74.8, "view:sun_azimuth": 164.4, "view:sun_elevation": 38.9, "grid:code": "MXRA-Z29-031311331221", "proj:bbox": "469599.91455078125,3565564.5751953125,470156.25,3570156.25", "tile:data_area": 2.5, "tile:clouds_area": 0.0, "tile:clouds_percent": 0, "proj:code": "EPSG:32629", "visual": "https://maxar-opendata.s3.amazonaws.com/events/Morocco-Flooding-Dec-2025/ard/29/031311331221/2025-11-11/10400100AE4DC200-visual.tif", "ms_analytic": "https://maxar-opendata.s3.amazonaws.com/events/Morocco-Flooding-Dec-2025/ard/29/031311331221/2025-11-11/10400100AE4DC200-ms.tif", "pan_analytic": "https://maxar-opendata.s3.amazonaws.com/events/Morocco-Flooding-Dec-2025/ard/29/031311331221/2025-11-11/10400100AE4DC200-pan.tif", "data-mask": "https://maxar-opendata.s3.amazonaws.com/events/Morocco-Flooding-Dec-2025/ard/29/031311331221/2025-11-11/10400100AE4DC200-data-mask.gpkg" }, "geometry": { "type": "Polygon", "coordinates": [ [ [ -9.322611819306882, 32.267715661438537 ], [ -9.316879727993514, 32.267730171651799 ], [ -9.316736513821333, 32.226477881817132 ], [ -9.322640308683585, 32.226292256293505 ], [ -9.322611819306882, 32.267715661438537 ] ] ] } },
{ "type": "Feature", "properties": { "datetime": "2025-11-11T11:30:26Z", "platform": "WV03", "gsd": 0.33, "ard_metadata_version": "0.0.1", "catalog_id": "10400100AE4DC200", "utm_zone": 29, "quadkey": "031311331230", "view:off_nadir": 13.9, "view:azimuth": 229.9, "view:incidence_angle": 74.7, "view:sun_azimuth": 164.4, "view:sun_elevation": 38.9, "grid:code": "MXRA-Z29-031311331230", "proj:bbox": "469843.75,3565572.8149414062,475156.25,3570156.25", "tile:data_area": 23.8, "tile:clouds_area": 0.0, "tile:clouds_percent": 0, "proj:code": "EPSG:32629", "visual": "https://maxar-opendata.s3.amazonaws.com/events/Morocco-Flooding-Dec-2025/ard/29/031311331230/2025-11-11/10400100AE4DC200-visual.tif", "ms_analytic": "https://maxar-opendata.s3.amazonaws.com/events/Morocco-Flooding-Dec-2025/ard/29/031311331230/2025-11-11/10400100AE4DC200-ms.tif", "pan_analytic": "https://maxar-opendata.s3.amazonaws.com/events/Morocco-Flooding-Dec-2025/ard/29/031311331230/2025-11-11/10400100AE4DC200-pan.tif", "data-mask": "https://maxar-opendata.s3.amazonaws.com/events/Morocco-Flooding-Dec-2025/ard/29/031311331230/2025-11-11/10400100AE4DC200-data-mask.gpkg" }, "geometry": { "type": "Polygon", "coordinates": [ [ [ -9.320197796051419, 32.267721804002925 ], [ -9.32005274465698, 32.226373169024797 ], [ -9.263675692721533, 32.228141459092967 ], [ -9.263790462591633, 32.267852200315588 ], [ -9.320197796051419, 32.267721804002925 ] ] ] } },
{ "type": "Feature", "properties": { "datetime": "2025-11-11T11:30:26Z", "platform": "WV03", "gsd": 0.33, "ard_metadata_version": "0.0.1", "catalog_id": "10400100AE4DC200", "utm_zone": 29, "quadkey": "031311331231", "view:off_nadir": 14.2, "view:azimuth": 231.0, "view:incidence_angle": 74.4, "view:sun_azimuth": 164.4, "view:sun_elevation": 38.9, "grid:code": "MXRA-Z29-031311331231", "proj:bbox": "474843.75,3565743.7133789062,480156.25,3570156.25", "tile:data_area": 22.9, "tile:clouds_area": 0.0, "tile:clouds_percent": 0, "proj:code": "EPSG:32629", "visual": "https://maxar-opendata.s3.amazonaws.com/events/Morocco-Flooding-Dec-2025/ard/29/031311331231/2025-11-11/10400100AE4DC200-visual.tif", "ms_analytic": "https://maxar-opendata.s3.amazonaws.com/events/Morocco-Flooding-Dec-2025/ard/29/031311331231/2025-11-11/10400100AE4DC200-ms.tif", "pan_analytic": "https://maxar-opendata.s3.amazonaws.com/events/Morocco-Flooding-Dec-2025/ard/29/031311331231/2025-11-11/10400100AE4DC200-pan.tif", "data-mask": "https://maxar-opendata.s3.amazonaws.com/events/Morocco-Flooding-Dec-2025/ard/29/031311331231/2025-11-11/10400100AE4DC200-data-mask.gpkg" }, "geometry": { "type": "Polygon", "coordinates": [ [ [ -9.267108550837857, 32.267845227226339 ], [ -9.266992055661444, 32.228038137802898 ], [ -9.210612573061955, 32.229689163900723 ], [ -9.210700905374987, 32.267951915793454 ], [ -9.267108550837857, 32.267845227226339 ] ] ] } },
{ "type": "Feature", "properties": { "datetime": "2025-11-11T11:30:26Z", "platform": "WV03", "gsd": 0.33, "ard_metadata_version": "0.0.1", "catalog_id": "10400100AE4DC200", "utm_zone": 29, "quadkey": "031311331320", "view:off_nadir": 14.5, "view:azimuth": 231.9, "view:incidence_angle": 74.0, "view:sun_azimuth": 164.4, "view:sun_elevation": 38.9, "grid:code": "MXRA-Z29-031311331320", "proj:bbox": "479843.75,3565903.9306640625,483494.873046875,3570156.25", "tile:data_area": 15.2, "tile:clouds_area": 0.0, "tile:clouds_percent": 0, "proj:code": "EPSG:32629", "visual": "https://maxar-opendata.s3.amazonaws.com/events/Morocco-Flooding-Dec-2025/ard/29/031311331320/2025-11-11/10400100AE4DC200-visual.tif", "ms_analytic": "https://maxar-opendata.s3.amazonaws.com/events/Morocco-Flooding-Dec-2025/ard/29/031311331320/2025-11-11/10400100AE4DC200-ms.tif", "pan_analytic": "https://maxar-opendata.s3.amazonaws.com/events/Morocco-Flooding-Dec-2025/ard/29/031311331320/2025-11-11/10400100AE4DC200-pan.tif", "data-mask": "https://maxar-opendata.s3.amazonaws.com/events/Morocco-Flooding-Dec-2025/ard/29/031311331320/2025-11-11/10400100AE4DC200-data-mask.gpkg" }, "geometry": { "type": "Polygon", "coordinates": [ [ [ -9.214019010139117, 32.267946337290283 ], [ -9.213929054610496, 32.229584481285784 ], [ -9.17518006708144, 32.230770158754247 ], [ -9.175254808464016, 32.268006069817915 ], [ -9.214019010139117, 32.267946337290283 ] ] ] } },
{ "type": "Feature", "properties": { "datetime": "2025-12-18T11:22:03Z", "platform": "WV02", "gsd": 0.51, "ard_metadata_version": "0.0.1", "catalog_id": "10300101205D7300", "utm_zone": 29, "quadkey": "031311331023", "view:off_nadir": 19.3, "view:azimuth": 183.5, "view:incidence_angle": 68.3, "view:sun_azimuth": 160.6, "view:sun_elevation": 31.9, "grid:code": "MXRA-Z29-031311331023", "proj:bbox": "469630.43212890625,3579843.75,470156.25,3580215.7592773438", "tile:data_area": 0.1, "tile:clouds_area": 0.1, "tile:clouds_percent": 94, "proj:code": "EPSG:32629", "visual": "https://maxar-opendata.s3.amazonaws.com/events/Morocco-Flooding-Dec-2025/ard/29/031311331023/2025-12-18/10300101205D7300-visual.tif", "ms_analytic": "https://maxar-opendata.s3.amazonaws.com/events/Morocco-Flooding-Dec-2025/ard/29/031311331023/2025-12-18/10300101205D7300-ms.tif", "pan_analytic": "https://maxar-opendata.s3.amazonaws.com/events/Morocco-Flooding-Dec-2025/ard/29/031311331023/2025-12-18/10300101205D7300-pan.tif", "data-mask": "https://maxar-opendata.s3.amazonaws.com/events/Morocco-Flooding-Dec-2025/ard/29/031311331023/2025-12-18/10300101205D7300-data-mask.gpkg" }, "geometry": { "type": "Polygon", "coordinates": [ [ [ -9.317377452559475, 32.358478844966925 ], [ -9.317195814681673, 32.358479301910279 ], [ -9.31718410019141, 32.355123344592286 ], [ -9.322772500186348, 32.355109167462068 ], [ -9.32278100149308, 32.35841557655128 ], [ -9.317377452559475, 32.358478844966925 ] ] ] } },
{ "type": "Feature", "properties": { "datetime": "2025-12-18T11:22:03Z", "platform": "WV02", "gsd": 0.51, "ard_metadata_version": "0.0.1", "catalog_id": "10300101205D7300", "utm_zone": 29, "quadkey": "031311331032", "view:off_nadir": 19.3, "view:azimuth": 183.7, "view:incidence_angle": 68.3, "view:sun_azimuth": 160.6, "view:sun_elevation": 31.9, "grid:code": "MXRA-Z29-031311331032", "proj:bbox": "469843.75,3579843.75,475156.25,3580243.2250976562", "tile:data_area": 2.0, "tile:clouds_area": 0.9, "tile:clouds_percent": 47, "proj:code": "EPSG:32629", "visual": "https://maxar-opendata.s3.amazonaws.com/events/Morocco-Flooding-Dec-2025/ard/29/031311331032/2025-12-18/10300101205D7300-visual.tif", "ms_analytic": "https://maxar-opendata.s3.amazonaws.com/events/Morocco-Flooding-Dec-2025/ard/29/031311331032/2025-12-18/10300101205D7300-ms.tif", "pan_analytic": "https://maxar-opendata.s3.amazonaws.com/events/Morocco-Flooding-Dec-2025/ard/29/031311331032/2025-12-18/10300101205D7300-pan.tif", "data-mask": "https://maxar-opendata.s3.amazonaws.com/events/Morocco-Flooding-Dec-2025/ard/29/031311331032/2025-12-18/10300101205D7300-data-mask.gpkg" }, "geometry": { "type": "Polygon", "coordinates": [ [ [ -9.289918442913553, 32.35879272984976 ], [ -9.288770172590974, 32.358778845740638 ], [ -9.285000265363065, 32.358501101855737 ], [ -9.264053666533663, 32.358626534283516 ], [ -9.264043842594072, 32.355245783707083 ], [ -9.320505355218, 32.355114948798352 ], [ -9.320517085541606, 32.358440621598213 ], [ -9.289918442913553, 32.35879272984976 ] ] ] } },
{ "type": "Feature", "properties": { "datetime": "2025-12-18T11:22:03Z", "platform": "WV02", "gsd": 0.51, "ard_metadata_version": "0.0.1", "catalog_id": "10300101205D7300", "utm_zone": 29, "quadkey": "031311331033", "view:off_nadir": 19.3, "view:azimuth": 184.7, "view:incidence_angle": 68.2, "view:sun_azimuth": 160.6, "view:sun_elevation": 31.9, "grid:code": "MXRA-Z29-031311331033", "proj:bbox": "474843.75,3579843.75,480156.25,3580285.3393554688", "tile:data_area": 2.1, "tile:clouds_area": 0.8, "tile:clouds_percent": 40, "proj:code": "EPSG:32629", "visual": "https://maxar-opendata.s3.amazonaws.com/events/Morocco-Flooding-Dec-2025/ard/29/031311331033/2025-12-18/10300101205D7300-visual.tif", "ms_analytic": "https://maxar-opendata.s3.amazonaws.com/events/Morocco-Flooding-Dec-2025/ard/29/031311331033/2025-12-18/10300101205D7300-ms.tif", "pan_analytic": "https://maxar-opendata.s3.amazonaws.com/events/Morocco-Flooding-Dec-2025/ard/29/031311331033/2025-12-18/10300101205D7300-pan.tif", "data-mask": "https://maxar-opendata.s3.amazonaws.com/events/Morocco-Flooding-Dec-2025/ard/29/031311331033/2025-12-18/10300101205D7300-data-mask.gpkg" }, "geometry": { "type": "Polygon", "coordinates": [ [ [ -9.213309552473145, 32.359325487880085 ], [ -9.210912506459898, 32.359315753828383 ], [ -9.21090329203027, 32.355345834584966 ], [ -9.267365117888659, 32.35523878716338 ], [ -9.267374992483861, 32.35859475935694 ], [ -9.264413701036124, 32.358625779997354 ], [ -9.261997229177156, 32.358622563687504 ], [ -9.259759404538444, 32.358707031528624 ], [ -9.25753431560933, 32.35870884154626 ], [ -9.256292164539298, 32.358758174011818 ], [ -9.25514718749754, 32.35876049549487 ], [ -9.253885380566135, 32.358741017246381 ], [ -9.252409652052373, 32.358777016097989 ], [ -9.250959923990331, 32.358832217452026 ], [ -9.249075427747755, 32.358841459286403 ], [ -9.246795305552732, 32.35888448459761 ], [ -9.24399921672927, 32.358840369641101 ], [ -9.242062821826631, 32.358849607088565 ], [ -9.240236831402079, 32.35890540678772 ], [ -9.235378069344602, 32.35895586416212 ], [ -9.230873158253228, 32.359126622338778 ], [ -9.226899943758493, 32.359202659729867 ], [ -9.221142762061627, 32.35928721873583 ], [ -9.219595577115138, 32.359292675149661 ], [ -9.218006165759551, 32.359273407914948 ], [ -9.213309552473145, 32.359325487880085 ] ] ] } },
{ "type": "Feature", "properties": { "datetime": "2025-12-18T11:22:03Z", "platform": "WV02", "gsd": 0.51, "ard_metadata_version": "0.0.1", "catalog_id": "10300101205D7300", "utm_zone": 29, "quadkey": "031311331122", "view:off_nadir": 19.4, "view:azimuth": 185.8, "view:incidence_angle": 68.2, "view:sun_azimuth": 160.6, "view:sun_elevation": 31.9, "grid:code": "MXRA-Z29-031311331122", "proj:bbox": "479843.75,3579843.75,485156.25,3580337.2192382812", "tile:data_area": 2.4, "tile:clouds_area": 0.5, "tile:clouds_percent": 22, "proj:code": "EPSG:32629", "visual": "https://maxar-opendata.s3.amazonaws.com/events/Morocco-Flooding-Dec-2025/ard/29/031311331122/2025-12-18/10300101205D7300-visual.tif", "ms_analytic": "https://maxar-opendata.s3.amazonaws.com/events/Morocco-Flooding-Dec-2025/ard/29/031311331122/2025-12-18/10300101205D7300-ms.tif", "pan_analytic": "https://maxar-opendata.s3.amazonaws.com/events/Morocco-Flooding-Dec-2025/ard/29/031311331122/2025-12-18/10300101205D7300-pan.tif", "data-mask": "https://maxar-opendata.s3.amazonaws.com/events/Morocco-Flooding-Dec-2025/ard/29/031311331122/2025-12-18/10300101205D7300-data-mask.gpkg" }, "geometry": { "type": "Polygon", "coordinates": [ [ [ -9.157825378322521, 32.359875146518796 ], [ -9.157770236766677, 32.359875215509518 ], [ -9.157762507459427, 32.355423496845688 ], [ -9.214224583907955, 32.355340237318096 ], [ -9.214233962917067, 32.35931841489792 ], [ -9.208622511855138, 32.359311303335332 ], [ -9.204619950205194, 32.359331625941415 ], [ -9.200779626621888, 32.359379094109435 ], [ -9.197876566275465, 32.359364410677095 ], [ -9.193183105961126, 32.35938269933542 ], [ -9.191966727874178, 32.359370791230681 ], [ -9.189128666155209, 32.359416375157949 ], [ -9.187124110382827, 32.359413859037431 ], [ -9.185288294728323, 32.359446853262043 ], [ -9.18315393298292, 32.359414180833838 ], [ -9.178713530261311, 32.359464600211766 ], [ -9.176780337513915, 32.35946457162602 ], [ -9.172083740212422, 32.359545400283032 ], [ -9.170779893007403, 32.359591221774252 ], [ -9.16923596083544, 32.359607068324216 ], [ -9.167205587808162, 32.359678603355654 ], [ -9.165642226780548, 32.35971370321419 ], [ -9.164678873419243, 32.359714964755923 ], [ -9.161299129783679, 32.359777147075341 ], [ -9.157825378322521, 32.359875146518796 ] ] ] } },
{ "type": "Feature", "properties": { "datetime": "2025-12-18T11:22:03Z", "platform": "WV02", "gsd": 0.51, "ard_metadata_version": "0.0.1", "catalog_id": "10300101205D7300", "utm_zone": 29, "quadkey": "031311331123", "view:off_nadir": 19.4, "view:azimuth": 186.4, "view:incidence_angle": 68.2, "view:sun_azimuth": 160.6, "view:sun_elevation": 31.9, "grid:code": "MXRA-Z29-031311331123", "proj:bbox": "484843.75,3579843.75,487102.05078125,3580362.8540039062", "tile:data_area": 1.1, "tile:clouds_area": 0.0, "tile:clouds_percent": 0, "proj:code": "EPSG:32629", "visual": "https://maxar-opendata.s3.amazonaws.com/events/Morocco-Flooding-Dec-2025/ard/29/031311331123/2025-12-18/10300101205D7300-visual.tif", "ms_analytic": "https://maxar-opendata.s3.amazonaws.com/events/Morocco-Flooding-Dec-2025/ard/29/031311331123/2025-12-18/10300101205D7300-ms.tif", "pan_analytic": "https://maxar-opendata.s3.amazonaws.com/events/Morocco-Flooding-Dec-2025/ard/29/031311331123/2025-12-18/10300101205D7300-pan.tif", "data-mask": "https://maxar-opendata.s3.amazonaws.com/events/Morocco-Flooding-Dec-2025/ard/29/031311331123/2025-12-18/10300101205D7300-data-mask.gpkg" }, "geometry": { "type": "Polygon", "coordinates": [ [ [ -9.137157362214262, 32.36013057510695 ], [ -9.137089245919716, 32.360130649165399 ], [ -9.137098398201623, 32.355447650502462 ], [ -9.161083812235193, 32.355419298876924 ], [ -9.161091548064446, 32.359782918539395 ], [ -9.158999530512649, 32.359851647126618 ], [ -9.154173196224331, 32.359959503150478 ], [ -9.151967549834676, 32.359973192400624 ], [ -9.150475536832801, 32.360008018285733 ], [ -9.146800458349867, 32.359982065622056 ], [ -9.14470188455236, 32.360017527763638 ], [ -9.141412969741307, 32.360101097607135 ], [ -9.137157362214262, 32.36013057510695 ] ] ] } },
{ "type": "Feature", "properties": { "datetime": "2025-12-18T11:22:03Z", "platform": "WV02", "gsd": 0.51, "ard_metadata_version": "0.0.1", "catalog_id": "10300101205D7300", "utm_zone": 29, "quadkey": "031311331201", "view:off_nadir": 19.3, "view:azimuth": 183.4, "view:incidence_angle": 68.3, "view:sun_azimuth": 160.6, "view:sun_elevation": 31.9, "grid:code": "MXRA-Z29-031311331201", "proj:bbox": "469627.0751953125,3574843.75,470156.25,3580156.25", "tile:data_area": 2.8, "tile:clouds_area": 2.7, "tile:clouds_percent": 99, "proj:code": "EPSG:32629", "visual": "https://maxar-opendata.s3.amazonaws.com/events/Morocco-Flooding-Dec-2025/ard/29/031311331201/2025-12-18/10300101205D7300-visual.tif", "ms_analytic": "https://maxar-opendata.s3.amazonaws.com/events/Morocco-Flooding-Dec-2025/ard/29/031311331201/2025-12-18/10300101205D7300-ms.tif", "pan_analytic": "https://maxar-opendata.s3.amazonaws.com/events/Morocco-Flooding-Dec-2025/ard/29/031311331201/2025-12-18/10300101205D7300-pan.tif", "data-mask": "https://maxar-opendata.s3.amazonaws.com/events/Morocco-Flooding-Dec-2025/ard/29/031311331201/2025-12-18/10300101205D7300-data-mask.gpkg" }, "geometry": { "type": "Polygon", "coordinates": [ [ [ -9.322779270468647, 32.357928288617529 ], [ -9.317193940616724, 32.357942458981462 ], [ -9.317026840227227, 32.310017342440439 ], [ -9.322648129446373, 32.310003098703618 ], [ -9.322779270468647, 32.357928288617529 ] ] ] } },
{ "type": "Feature", "properties": { "datetime": "2025-12-18T11:22:03Z", "platform": "WV02", "gsd": 0.51, "ard_metadata_version": "0.0.1", "catalog_id": "10300101205D7300", "utm_zone": 29, "quadkey": "031311331203", "view:off_nadir": 19.1, "view:azimuth": 183.6, "view:incidence_angle": 68.4, "view:sun_azimuth": 160.6, "view:sun_elevation": 31.9, "grid:code": "MXRA-Z29-031311331203", "proj:bbox": "469621.58203125,3569843.75,470156.25,3575156.25", "tile:data_area": 2.8, "tile:clouds_area": 2.1, "tile:clouds_percent": 74, "proj:code": "EPSG:32629", "visual": "https://maxar-opendata.s3.amazonaws.com/events/Morocco-Flooding-Dec-2025/ard/29/031311331203/2025-12-18/10300101205D7300-visual.tif", "ms_analytic": "https://maxar-opendata.s3.amazonaws.com/events/Morocco-Flooding-Dec-2025/ard/29/031311331203/2025-12-18/10300101205D7300-ms.tif", "pan_analytic": "https://maxar-opendata.s3.amazonaws.com/events/Morocco-Flooding-Dec-2025/ard/29/031311331203/2025-12-18/10300101205D7300-pan.tif", "data-mask": "https://maxar-opendata.s3.amazonaws.com/events/Morocco-Flooding-Dec-2025/ard/29/031311331203/2025-12-18/10300101205D7300-data-mask.gpkg" }, "geometry": { "type": "Polygon", "coordinates": [ [ [ -9.322654880079856, 32.312822240061401 ], [ -9.31703665867825, 32.312836477053771 ], [ -9.316869931472153, 32.264911016829281 ], [ -9.322546762198703, 32.264896648853885 ], [ -9.322654880079856, 32.312822240061401 ] ] ] } },
{ "type": "Feature", "properties": { "datetime": "2025-12-18T11:22:03Z", "platform": "WV02", "gsd": 0.51, "ard_metadata_version": "0.0.1", "catalog_id": "10300101205D7300", "utm_zone": 29, "quadkey": "031311331210", "view:off_nadir": 19.3, "view:azimuth": 183.7, "view:incidence_angle": 68.3, "view:sun_azimuth": 160.6, "view:sun_elevation": 31.9, "grid:code": "MXRA-Z29-031311331210", "proj:bbox": "469843.75,3574843.75,475156.25,3580156.25", "tile:data_area": 28.2, "tile:clouds_area": 17.4, "tile:clouds_percent": 61, "proj:code": "EPSG:32629", "visual": "https://maxar-opendata.s3.amazonaws.com/events/Morocco-Flooding-Dec-2025/ard/29/031311331210/2025-12-18/10300101205D7300-visual.tif", "ms_analytic": "https://maxar-opendata.s3.amazonaws.com/events/Morocco-Flooding-Dec-2025/ard/29/031311331210/2025-12-18/10300101205D7300-ms.tif", "pan_analytic": "https://maxar-opendata.s3.amazonaws.com/events/Morocco-Flooding-Dec-2025/ard/29/031311331210/2025-12-18/10300101205D7300-pan.tif", "data-mask": "https://maxar-opendata.s3.amazonaws.com/events/Morocco-Flooding-Dec-2025/ard/29/031311331210/2025-12-18/10300101205D7300-data-mask.gpkg" }, "geometry": { "type": "Polygon", "coordinates": [ [ [ -9.32051529867876, 32.35793406227873 ], [ -9.320346448642955, 32.310008961179598 ], [ -9.263912928763709, 32.310139569613156 ], [ -9.264052034429694, 32.35806491134948 ], [ -9.32051529867876, 32.35793406227873 ] ] ] } },
{ "type": "Feature", "properties": { "datetime": "2025-12-18T11:22:03Z", "platform": "WV02", "gsd": 0.51, "ard_metadata_version": "0.0.1", "catalog_id": "10300101205D7300", "utm_zone": 29, "quadkey": "031311331211", "view:off_nadir": 19.3, "view:azimuth": 184.8, "view:incidence_angle": 68.3, "view:sun_azimuth": 160.6, "view:sun_elevation": 31.9, "grid:code": "MXRA-Z29-031311331211", "proj:bbox": "474843.75,3574843.75,480156.25,3580156.25", "tile:data_area": 28.2, "tile:clouds_area": 9.2, "tile:clouds_percent": 32, "proj:code": "EPSG:32629", "visual": "https://maxar-opendata.s3.amazonaws.com/events/Morocco-Flooding-Dec-2025/ard/29/031311331211/2025-12-18/10300101205D7300-visual.tif", "ms_analytic": "https://maxar-opendata.s3.amazonaws.com/events/Morocco-Flooding-Dec-2025/ard/29/031311331211/2025-12-18/10300101205D7300-ms.tif", "pan_analytic": "https://maxar-opendata.s3.amazonaws.com/events/Morocco-Flooding-Dec-2025/ard/29/031311331211/2025-12-18/10300101205D7300-pan.tif", "data-mask": "https://maxar-opendata.s3.amazonaws.com/events/Morocco-Flooding-Dec-2025/ard/29/031311331211/2025-12-18/10300101205D7300-data-mask.gpkg" }, "geometry": { "type": "Polygon", "coordinates": [ [ [ -9.267373412762307, 32.358057914048437 ], [ -9.267232557406247, 32.310132585180483 ], [ -9.210798724929091, 32.310239447302571 ], [ -9.210909835238928, 32.358164973057221 ], [ -9.267373412762307, 32.358057914048437 ] ] ] } },
{ "type": "Feature", "properties": { "datetime": "2025-12-18T11:22:03Z", "platform": "WV02", "gsd": 0.51, "ard_metadata_version": "0.0.1", "catalog_id": "10300101205D7300", "utm_zone": 29, "quadkey": "031311331212", "view:off_nadir": 19.1, "view:azimuth": 183.9, "view:incidence_angle": 68.4, "view:sun_azimuth": 160.6, "view:sun_elevation": 31.9, "grid:code": "MXRA-Z29-031311331212", "proj:bbox": "469843.75,3569843.75,475156.25,3575156.25", "tile:data_area": 28.2, "tile:clouds_area": 24.6, "tile:clouds_percent": 87, "proj:code": "EPSG:32629", "visual": "https://maxar-opendata.s3.amazonaws.com/events/Morocco-Flooding-Dec-2025/ard/29/031311331212/2025-12-18/10300101205D7300-visual.tif", "ms_analytic": "https://maxar-opendata.s3.amazonaws.com/events/Morocco-Flooding-Dec-2025/ard/29/031311331212/2025-12-18/10300101205D7300-ms.tif", "pan_analytic": "https://maxar-opendata.s3.amazonaws.com/events/Morocco-Flooding-Dec-2025/ard/29/031311331212/2025-12-18/10300101205D7300-pan.tif", "data-mask": "https://maxar-opendata.s3.amazonaws.com/events/Morocco-Flooding-Dec-2025/ard/29/031311331212/2025-12-18/10300101205D7300-data-mask.gpkg" }, "geometry": { "type": "Polygon", "coordinates": [ [ [ -9.320356369899347, 32.31282809488502 ], [ -9.3201878969543, 32.264902650087443 ], [ -9.263782307304782, 32.265033032265578 ], [ -9.263921102306371, 32.312958717466827 ], [ -9.320356369899347, 32.31282809488502 ] ] ] } },
{ "type": "Feature", "properties": { "datetime": "2025-12-18T11:22:03Z", "platform": "WV02", "gsd": 0.51, "ard_metadata_version": "0.0.1", "catalog_id": "10300101205D7300", "utm_zone": 29, "quadkey": "031311331213", "view:off_nadir": 19.2, "view:azimuth": 185.0, "view:incidence_angle": 68.4, "view:sun_azimuth": 160.6, "view:sun_elevation": 31.9, "grid:code": "MXRA-Z29-031311331213", "proj:bbox": "474843.75,3569843.75,480156.25,3575156.25", "tile:data_area": 28.2, "tile:clouds_area": 3.5, "tile:clouds_percent": 12, "proj:code": "EPSG:32629", "visual": "https://maxar-opendata.s3.amazonaws.com/events/Morocco-Flooding-Dec-2025/ard/29/031311331213/2025-12-18/10300101205D7300-visual.tif", "ms_analytic": "https://maxar-opendata.s3.amazonaws.com/events/Morocco-Flooding-Dec-2025/ard/29/031311331213/2025-12-18/10300101205D7300-ms.tif", "pan_analytic": "https://maxar-opendata.s3.amazonaws.com/events/Morocco-Flooding-Dec-2025/ard/29/031311331213/2025-12-18/10300101205D7300-pan.tif", "data-mask": "https://maxar-opendata.s3.amazonaws.com/events/Morocco-Flooding-Dec-2025/ard/29/031311331213/2025-12-18/10300101205D7300-data-mask.gpkg" }, "geometry": { "type": "Polygon", "coordinates": [ [ [ -9.267240833756848, 32.312951732277561 ], [ -9.267100292972689, 32.265026059932175 ], [ -9.210694391359674, 32.265132736934575 ], [ -9.210805253526237, 32.313058605975591 ], [ -9.267240833756848, 32.312951732277561 ] ] ] } },
{ "type": "Feature", "properties": { "datetime": "2025-12-18T11:22:03Z", "platform": "WV02", "gsd": 0.51, "ard_metadata_version": "0.0.1", "catalog_id": "10300101205D7300", "utm_zone": 29, "quadkey": "031311331300", "view:off_nadir": 19.3, "view:azimuth": 185.9, "view:incidence_angle": 68.2, "view:sun_azimuth": 160.6, "view:sun_elevation": 31.9, "grid:code": "MXRA-Z29-031311331300", "proj:bbox": "479843.75,3574843.75,485156.25,3580156.25", "tile:data_area": 28.2, "tile:clouds_area": 14.5, "tile:clouds_percent": 51, "proj:code": "EPSG:32629", "visual": "https://maxar-opendata.s3.amazonaws.com/events/Morocco-Flooding-Dec-2025/ard/29/031311331300/2025-12-18/10300101205D7300-visual.tif", "ms_analytic": "https://maxar-opendata.s3.amazonaws.com/events/Morocco-Flooding-Dec-2025/ard/29/031311331300/2025-12-18/10300101205D7300-ms.tif", "pan_analytic": "https://maxar-opendata.s3.amazonaws.com/events/Morocco-Flooding-Dec-2025/ard/29/031311331300/2025-12-18/10300101205D7300-pan.tif", "data-mask": "https://maxar-opendata.s3.amazonaws.com/events/Morocco-Flooding-Dec-2025/ard/29/031311331300/2025-12-18/10300101205D7300-data-mask.gpkg" }, "geometry": { "type": "Polygon", "coordinates": [ [ [ -9.214231230156745, 32.358159375184485 ], [ -9.214118370121025, 32.310233859724612 ], [ -9.157684287562979, 32.310316975129346 ], [ -9.15776740201134, 32.35824264372441 ], [ -9.214231230156745, 32.358159375184485 ] ] ] } },
{ "type": "Feature", "properties": { "datetime": "2025-12-18T11:22:03Z", "platform": "WV02", "gsd": 0.51, "ard_metadata_version": "0.0.1", "catalog_id": "10300101205D7300", "utm_zone": 29, "quadkey": "031311331301", "view:off_nadir": 19.3, "view:azimuth": 186.5, "view:incidence_angle": 68.2, "view:sun_azimuth": 160.6, "view:sun_elevation": 31.9, "grid:code": "MXRA-Z29-031311331301", "proj:bbox": "484843.75,3574843.75,487101.74560546875,3580156.25", "tile:data_area": 11.9, "tile:clouds_area": 0.0, "tile:clouds_percent": 0, "proj:code": "EPSG:32629", "visual": "https://maxar-opendata.s3.amazonaws.com/events/Morocco-Flooding-Dec-2025/ard/29/031311331301/2025-12-18/10300101205D7300-visual.tif", "ms_analytic": "https://maxar-opendata.s3.amazonaws.com/events/Morocco-Flooding-Dec-2025/ard/29/031311331301/2025-12-18/10300101205D7300-ms.tif", "pan_analytic": "https://maxar-opendata.s3.amazonaws.com/events/Morocco-Flooding-Dec-2025/ard/29/031311331301/2025-12-18/10300101205D7300-pan.tif", "data-mask": "https://maxar-opendata.s3.amazonaws.com/events/Morocco-Flooding-Dec-2025/ard/29/031311331301/2025-12-18/10300101205D7300-data-mask.gpkg" }, "geometry": { "type": "Polygon", "coordinates": [ [ [ -9.161088809828881, 32.358238445301239 ], [ -9.161003945626781, 32.310312784427303 ], [ -9.137215209542603, 32.310340886235032 ], [ -9.137089677392554, 32.358266814098513 ], [ -9.161088809828881, 32.358238445301239 ] ] ] } },
{ "type": "Feature", "properties": { "datetime": "2025-12-18T11:22:03Z", "platform": "WV02", "gsd": 0.51, "ard_metadata_version": "0.0.1", "catalog_id": "10300101205D7300", "utm_zone": 29, "quadkey": "031311331302", "view:off_nadir": 19.2, "view:azimuth": 186.1, "view:incidence_angle": 68.4, "view:sun_azimuth": 160.6, "view:sun_elevation": 31.9, "grid:code": "MXRA-Z29-031311331302", "proj:bbox": "479843.75,3569843.75,485156.25,3575156.25", "tile:data_area": 28.2, "tile:clouds_area": 6.1, "tile:clouds_percent": 21, "proj:code": "EPSG:32629", "visual": "https://maxar-opendata.s3.amazonaws.com/events/Morocco-Flooding-Dec-2025/ard/29/031311331302/2025-12-18/10300101205D7300-visual.tif", "ms_analytic": "https://maxar-opendata.s3.amazonaws.com/events/Morocco-Flooding-Dec-2025/ard/29/031311331302/2025-12-18/10300101205D7300-ms.tif", "pan_analytic": "https://maxar-opendata.s3.amazonaws.com/events/Morocco-Flooding-Dec-2025/ard/29/031311331302/2025-12-18/10300101205D7300-pan.tif", "data-mask": "https://maxar-opendata.s3.amazonaws.com/events/Morocco-Flooding-Dec-2025/ard/29/031311331302/2025-12-18/10300101205D7300-data-mask.gpkg" }, "geometry": { "type": "Polygon", "coordinates": [ [ [ -9.214125001528213, 32.313053017792349 ], [ -9.214012393543388, 32.265127159036105 ], [ -9.157606242357021, 32.265210130457852 ], [ -9.157689171184936, 32.313136142200669 ], [ -9.214125001528213, 32.313053017792349 ] ] ] } },
{ "type": "Feature", "properties": { "datetime": "2025-12-18T11:22:03Z", "platform": "WV02", "gsd": 0.51, "ard_metadata_version": "0.0.1", "catalog_id": "10300101205D7300", "utm_zone": 29, "quadkey": "031311331303", "view:off_nadir": 19.2, "view:azimuth": 186.7, "view:incidence_angle": 68.3, "view:sun_azimuth": 160.6, "view:sun_elevation": 31.9, "grid:code": "MXRA-Z29-031311331303", "proj:bbox": "484843.75,3569843.75,487084.3505859375,3575156.25", "tile:data_area": 11.8, "tile:clouds_area": 2.1, "tile:clouds_percent": 18, "proj:code": "EPSG:32629", "visual": "https://maxar-opendata.s3.amazonaws.com/events/Morocco-Flooding-Dec-2025/ard/29/031311331303/2025-12-18/10300101205D7300-visual.tif", "ms_analytic": "https://maxar-opendata.s3.amazonaws.com/events/Morocco-Flooding-Dec-2025/ard/29/031311331303/2025-12-18/10300101205D7300-ms.tif", "pan_analytic": "https://maxar-opendata.s3.amazonaws.com/events/Morocco-Flooding-Dec-2025/ard/29/031311331303/2025-12-18/10300101205D7300-pan.tif", "data-mask": "https://maxar-opendata.s3.amazonaws.com/events/Morocco-Flooding-Dec-2025/ard/29/031311331303/2025-12-18/10300101205D7300-data-mask.gpkg" }, "geometry": { "type": "Polygon", "coordinates": [ [ [ -9.161008932060417, 32.313131951044667 ], [ -9.160924257386482, 32.265205947015481 ], [ -9.137364392306134, 32.26523376424656 ], [ -9.137206491391668, 32.313160069993991 ], [ -9.161008932060417, 32.313131951044667 ] ] ] } },
{ "type": "Feature", "properties": { "datetime": "2025-12-18T11:22:04Z", "platform": "WV02", "gsd": 0.51, "ard_metadata_version": "0.0.1", "catalog_id": "10300101205D7300", "utm_zone": 29, "quadkey": "031311331221", "view:off_nadir": 19.0, "view:azimuth": 183.7, "view:incidence_angle": 68.6, "view:sun_azimuth": 160.6, "view:sun_elevation": 31.9, "grid:code": "MXRA-Z29-031311331221", "proj:bbox": "469615.78369140625,3564843.75,470156.25,3570156.25", "tile:data_area": 2.8, "tile:clouds_area": 2.5, "tile:clouds_percent": 88, "proj:code": "EPSG:32629", "visual": "https://maxar-opendata.s3.amazonaws.com/events/Morocco-Flooding-Dec-2025/ard/29/031311331221/2025-12-18/10300101205D7300-visual.tif", "ms_analytic": "https://maxar-opendata.s3.amazonaws.com/events/Morocco-Flooding-Dec-2025/ard/29/031311331221/2025-12-18/10300101205D7300-ms.tif", "pan_analytic": "https://maxar-opendata.s3.amazonaws.com/events/Morocco-Flooding-Dec-2025/ard/29/031311331221/2025-12-18/10300101205D7300-pan.tif", "data-mask": "https://maxar-opendata.s3.amazonaws.com/events/Morocco-Flooding-Dec-2025/ard/29/031311331221/2025-12-18/10300101205D7300-data-mask.gpkg" }, "geometry": { "type": "Polygon", "coordinates": [ [ [ -9.322553493921468, 32.267715810393341 ], [ -9.316879727993514, 32.267730171651799 ], [ -9.316713373213425, 32.219804367999117 ], [ -9.322448932629177, 32.219789867989782 ], [ -9.322553493921468, 32.267715810393341 ] ] ] } },
{ "type": "Feature", "properties": { "datetime": "2025-12-18T11:22:04Z", "platform": "WV02", "gsd": 0.51, "ard_metadata_version": "0.0.1", "catalog_id": "10300101205D7300", "utm_zone": 29, "quadkey": "031311331223", "view:off_nadir": 19.0, "view:azimuth": 184.0, "view:incidence_angle": 68.6, "view:sun_azimuth": 160.6, "view:sun_elevation": 32.0, "grid:code": "MXRA-Z29-031311331223", "proj:bbox": "469616.0888671875,3564734.8022460938,470156.25,3565156.25", "tile:data_area": 0.2, "tile:clouds_area": 0.1, "tile:clouds_percent": 83, "proj:code": "EPSG:32629", "visual": "https://maxar-opendata.s3.amazonaws.com/events/Morocco-Flooding-Dec-2025/ard/29/031311331223/2025-12-18/10300101205D7300-visual.tif", "ms_analytic": "https://maxar-opendata.s3.amazonaws.com/events/Morocco-Flooding-Dec-2025/ard/29/031311331223/2025-12-18/10300101205D7300-ms.tif", "pan_analytic": "https://maxar-opendata.s3.amazonaws.com/events/Morocco-Flooding-Dec-2025/ard/29/031311331223/2025-12-18/10300101205D7300-pan.tif", "data-mask": "https://maxar-opendata.s3.amazonaws.com/events/Morocco-Flooding-Dec-2025/ard/29/031311331223/2025-12-18/10300101205D7300-data-mask.gpkg" }, "geometry": { "type": "Polygon", "coordinates": [ [ [ -9.322452406876685, 32.222609057956795 ], [ -9.316723147849601, 32.22262354301575 ], [ -9.31671016620866, 32.218879325921883 ], [ -9.32244222492335, 32.21880701958721 ], [ -9.322452406876685, 32.222609057956795 ] ] ] } },
{ "type": "Feature", "properties": { "datetime": "2025-12-18T11:22:04Z", "platform": "WV02", "gsd": 0.51, "ard_metadata_version": "0.0.1", "catalog_id": "10300101205D7300", "utm_zone": 29, "quadkey": "031311331230", "view:off_nadir": 19.0, "view:azimuth": 184.1, "view:incidence_angle": 68.6, "view:sun_azimuth": 160.6, "view:sun_elevation": 31.9, "grid:code": "MXRA-Z29-031311331230", "proj:bbox": "469843.75,3564843.75,475156.25,3570156.25", "tile:data_area": 28.2, "tile:clouds_area": 8.6, "tile:clouds_percent": 30, "proj:code": "EPSG:32629", "visual": "https://maxar-opendata.s3.amazonaws.com/events/Morocco-Flooding-Dec-2025/ard/29/031311331230/2025-12-18/10300101205D7300-visual.tif", "ms_analytic": "https://maxar-opendata.s3.amazonaws.com/events/Morocco-Flooding-Dec-2025/ard/29/031311331230/2025-12-18/10300101205D7300-ms.tif", "pan_analytic": "https://maxar-opendata.s3.amazonaws.com/events/Morocco-Flooding-Dec-2025/ard/29/031311331230/2025-12-18/10300101205D7300-pan.tif", "data-mask": "https://maxar-opendata.s3.amazonaws.com/events/Morocco-Flooding-Dec-2025/ard/29/031311331230/2025-12-18/10300101205D7300-data-mask.gpkg" }, "geometry": { "type": "Polygon", "coordinates": [ [ [ -9.320197796051419, 32.267721804002925 ], [ -9.320029699431807, 32.219796015762206 ], [ -9.263651977623924, 32.219926171904049 ], [ -9.263790462591633, 32.267852200315588 ], [ -9.320197796051419, 32.267721804002925 ] ] ] } },
{ "type": "Feature", "properties": { "datetime": "2025-12-18T11:22:04Z", "platform": "WV02", "gsd": 0.51, "ard_metadata_version": "0.0.1", "catalog_id": "10300101205D7300", "utm_zone": 29, "quadkey": "031311331231", "view:off_nadir": 19.1, "view:azimuth": 185.2, "view:incidence_angle": 68.5, "view:sun_azimuth": 160.6, "view:sun_elevation": 31.9, "grid:code": "MXRA-Z29-031311331231", "proj:bbox": "474843.75,3564843.75,480156.25,3570156.25", "tile:data_area": 28.2, "tile:clouds_area": 1.3, "tile:clouds_percent": 4, "proj:code": "EPSG:32629", "visual": "https://maxar-opendata.s3.amazonaws.com/events/Morocco-Flooding-Dec-2025/ard/29/031311331231/2025-12-18/10300101205D7300-visual.tif", "ms_analytic": "https://maxar-opendata.s3.amazonaws.com/events/Morocco-Flooding-Dec-2025/ard/29/031311331231/2025-12-18/10300101205D7300-ms.tif", "pan_analytic": "https://maxar-opendata.s3.amazonaws.com/events/Morocco-Flooding-Dec-2025/ard/29/031311331231/2025-12-18/10300101205D7300-pan.tif", "data-mask": "https://maxar-opendata.s3.amazonaws.com/events/Morocco-Flooding-Dec-2025/ard/29/031311331231/2025-12-18/10300101205D7300-data-mask.gpkg" }, "geometry": { "type": "Polygon", "coordinates": [ [ [ -9.267108550837857, 32.267845227226339 ], [ -9.266968323987152, 32.219919211658222 ], [ -9.21059029084806, 32.220025703720225 ], [ -9.210700905374987, 32.267951915793454 ], [ -9.267108550837857, 32.267845227226339 ] ] ] } },
{ "type": "Feature", "properties": { "datetime": "2025-12-18T11:22:04Z", "platform": "WV02", "gsd": 0.51, "ard_metadata_version": "0.0.1", "catalog_id": "10300101205D7300", "utm_zone": 29, "quadkey": "031311331232", "view:off_nadir": 19.0, "view:azimuth": 184.1, "view:incidence_angle": 68.6, "view:sun_azimuth": 160.6, "view:sun_elevation": 32.0, "grid:code": "MXRA-Z29-031311331232", "proj:bbox": "469843.75,3564737.548828125,475156.25,3565156.25", "tile:data_area": 2.0, "tile:clouds_area": 1.1, "tile:clouds_percent": 55, "proj:code": "EPSG:32629", "visual": "https://maxar-opendata.s3.amazonaws.com/events/Morocco-Flooding-Dec-2025/ard/29/031311331232/2025-12-18/10300101205D7300-visual.tif", "ms_analytic": "https://maxar-opendata.s3.amazonaws.com/events/Morocco-Flooding-Dec-2025/ard/29/031311331232/2025-12-18/10300101205D7300-ms.tif", "pan_analytic": "https://maxar-opendata.s3.amazonaws.com/events/Morocco-Flooding-Dec-2025/ard/29/031311331232/2025-12-18/10300101205D7300-pan.tif", "data-mask": "https://maxar-opendata.s3.amazonaws.com/events/Morocco-Flooding-Dec-2025/ard/29/031311331232/2025-12-18/10300101205D7300-data-mask.gpkg" }, "geometry": { "type": "Polygon", "coordinates": [ [ [ -9.320039576414594, 32.222615189872691 ], [ -9.320026343115279, 32.218837936773348 ], [ -9.263650849331245, 32.219535229686485 ], [ -9.263660114691991, 32.222745360135399 ], [ -9.320039576414594, 32.222615189872691 ] ] ] } },
{ "type": "Feature", "properties": { "datetime": "2025-12-18T11:22:04Z", "platform": "WV02", "gsd": 0.51, "ard_metadata_version": "0.0.1", "catalog_id": "10300101205D7300", "utm_zone": 29, "quadkey": "031311331233", "view:off_nadir": 19.0, "view:azimuth": 185.2, "view:incidence_angle": 68.6, "view:sun_azimuth": 160.6, "view:sun_elevation": 32.0, "grid:code": "MXRA-Z29-031311331233", "proj:bbox": "474843.75,3564796.7529296875,480156.25,3565156.25", "tile:data_area": 1.8, "tile:clouds_area": 0.1, "tile:clouds_percent": 10, "proj:code": "EPSG:32629", "visual": "https://maxar-opendata.s3.amazonaws.com/events/Morocco-Flooding-Dec-2025/ard/29/031311331233/2025-12-18/10300101205D7300-visual.tif", "ms_analytic": "https://maxar-opendata.s3.amazonaws.com/events/Morocco-Flooding-Dec-2025/ard/29/031311331233/2025-12-18/10300101205D7300-ms.tif", "pan_analytic": "https://maxar-opendata.s3.amazonaws.com/events/Morocco-Flooding-Dec-2025/ard/29/031311331233/2025-12-18/10300101205D7300-pan.tif", "data-mask": "https://maxar-opendata.s3.amazonaws.com/events/Morocco-Flooding-Dec-2025/ard/29/031311331233/2025-12-18/10300101205D7300-data-mask.gpkg" }, "geometry": { "type": "Polygon", "coordinates": [ [ [ -9.266976563404386, 32.222738399134442 ], [ -9.266967084955683, 32.219495232182609 ], [ -9.251937137814217, 32.219680255242707 ], [ -9.25088128144173, 32.219657576936214 ], [ -9.248190037911083, 32.219679408171594 ], [ -9.247143868314319, 32.219645667096977 ], [ -9.246288740504532, 32.219597779639855 ], [ -9.245148748738487, 32.219599995529116 ], [ -9.236903507732254, 32.219720335423368 ], [ -9.229205334365391, 32.219745540290155 ], [ -9.22637489431221, 32.219797443891565 ], [ -9.222041654011779, 32.219821648221867 ], [ -9.217151471164438, 32.219890712117021 ], [ -9.210590119487794, 32.219951369353744 ], [ -9.210596790311115, 32.222844902749969 ], [ -9.266976563404386, 32.222738399134442 ] ] ] } },
{ "type": "Feature", "properties": { "datetime": "2025-12-18T11:22:04Z", "platform": "WV02", "gsd": 0.51, "ard_metadata_version": "0.0.1", "catalog_id": "10300101205D7300", "utm_zone": 29, "quadkey": "031311331320", "view:off_nadir": 19.1, "view:azimuth": 186.2, "view:incidence_angle": 68.5, "view:sun_azimuth": 160.6, "view:sun_elevation": 31.9, "grid:code": "MXRA-Z29-031311331320", "proj:bbox": "479843.75,3564843.75,485156.25,3570156.25", "tile:data_area": 28.0, "tile:clouds_area": 9.6, "tile:clouds_percent": 34, "proj:code": "EPSG:32629", "visual": "https://maxar-opendata.s3.amazonaws.com/events/Morocco-Flooding-Dec-2025/ard/29/031311331320/2025-12-18/10300101205D7300-visual.tif", "ms_analytic": "https://maxar-opendata.s3.amazonaws.com/events/Morocco-Flooding-Dec-2025/ard/29/031311331320/2025-12-18/10300101205D7300-ms.tif", "pan_analytic": "https://maxar-opendata.s3.amazonaws.com/events/Morocco-Flooding-Dec-2025/ard/29/031311331320/2025-12-18/10300101205D7300-pan.tif", "data-mask": "https://maxar-opendata.s3.amazonaws.com/events/Morocco-Flooding-Dec-2025/ard/29/031311331320/2025-12-18/10300101205D7300-data-mask.gpkg" }, "geometry": { "type": "Polygon", "coordinates": [ [ [ -9.214019010139117, 32.267946337290283 ], [ -9.213906653693623, 32.220020135491879 ], [ -9.157529102617035, 32.220526945515246 ], [ -9.157611115071221, 32.26802931770689 ], [ -9.214019010139117, 32.267946337290283 ] ] ] } },
{ "type": "Feature", "properties": { "datetime": "2025-12-18T11:22:04Z", "platform": "WV02", "gsd": 0.51, "ard_metadata_version": "0.0.1", "catalog_id": "10300101205D7300", "utm_zone": 29, "quadkey": "031311331321", "view:off_nadir": 19.1, "view:azimuth": 186.9, "view:incidence_angle": 68.5, "view:sun_azimuth": 160.6, "view:sun_elevation": 31.9, "grid:code": "MXRA-Z29-031311331321", "proj:bbox": "484843.75,3564886.474609375,487063.90380859375,3570156.25", "tile:data_area": 11.6, "tile:clouds_area": 5.9, "tile:clouds_percent": 51, "proj:code": "EPSG:32629", "visual": "https://maxar-opendata.s3.amazonaws.com/events/Morocco-Flooding-Dec-2025/ard/29/031311331321/2025-12-18/10300101205D7300-visual.tif", "ms_analytic": "https://maxar-opendata.s3.amazonaws.com/events/Morocco-Flooding-Dec-2025/ard/29/031311331321/2025-12-18/10300101205D7300-ms.tif", "pan_analytic": "https://maxar-opendata.s3.amazonaws.com/events/Morocco-Flooding-Dec-2025/ard/29/031311331321/2025-12-18/10300101205D7300-pan.tif", "data-mask": "https://maxar-opendata.s3.amazonaws.com/events/Morocco-Flooding-Dec-2025/ard/29/031311331321/2025-12-18/10300101205D7300-data-mask.gpkg" }, "geometry": { "type": "Polygon", "coordinates": [ [ [ -9.160929232682728, 32.268025133810994 ], [ -9.160845425808022, 32.220484225406096 ], [ -9.137475630368343, 32.220778855338132 ], [ -9.137355677794496, 32.268052968153007 ], [ -9.160929232682728, 32.268025133810994 ] ] ] } },
{ "type": "Feature", "properties": { "datetime": "2025-12-18T11:22:04Z", "platform": "WV02", "gsd": 0.51, "ard_metadata_version": "0.0.1", "catalog_id": "10300101205D7300", "utm_zone": 29, "quadkey": "031311331322", "view:off_nadir": 19.1, "view:azimuth": 186.3, "view:incidence_angle": 68.5, "view:sun_azimuth": 160.6, "view:sun_elevation": 32.0, "grid:code": "MXRA-Z29-031311331322", "proj:bbox": "479843.75,3564832.763671875,485156.25,3565156.25", "tile:data_area": 1.5, "tile:clouds_area": 0.0, "tile:clouds_percent": 0, "proj:code": "EPSG:32629", "visual": "https://maxar-opendata.s3.amazonaws.com/events/Morocco-Flooding-Dec-2025/ard/29/031311331322/2025-12-18/10300101205D7300-visual.tif", "ms_analytic": "https://maxar-opendata.s3.amazonaws.com/events/Morocco-Flooding-Dec-2025/ard/29/031311331322/2025-12-18/10300101205D7300-ms.tif", "pan_analytic": "https://maxar-opendata.s3.amazonaws.com/events/Morocco-Flooding-Dec-2025/ard/29/031311331322/2025-12-18/10300101205D7300-pan.tif", "data-mask": "https://maxar-opendata.s3.amazonaws.com/events/Morocco-Flooding-Dec-2025/ard/29/031311331322/2025-12-18/10300101205D7300-data-mask.gpkg" }, "geometry": { "type": "Polygon", "coordinates": [ [ [ -9.213913255507935, 32.22283933391752 ], [ -9.213906421615382, 32.219921023024298 ], [ -9.194721275152792, 32.220197060079308 ], [ -9.177556486971911, 32.220244359928451 ], [ -9.172734328733862, 32.220352907181848 ], [ -9.169897190034735, 32.220315455056728 ], [ -9.164155332503221, 32.220477217429874 ], [ -9.15752911211233, 32.220532451780578 ], [ -9.157533233315586, 32.222922170481887 ], [ -9.213913255507935, 32.22283933391752 ] ] ] } },
{ "type": "Feature", "properties": { "datetime": "2025-12-18T11:22:04Z", "platform": "WV02", "gsd": 0.51, "ard_metadata_version": "0.0.1", "catalog_id": "10300101205D7300", "utm_zone": 29, "quadkey": "031311331323", "view:off_nadir": 19.1, "view:azimuth": 186.8, "view:incidence_angle": 68.5, "view:sun_azimuth": 160.6, "view:sun_elevation": 32.0, "grid:code": "MXRA-Z29-031311331323", "proj:bbox": "484843.75,3564887.0849609375,487047.119140625,3565156.25", "tile:data_area": 0.5, "tile:clouds_area": 0.0, "tile:clouds_percent": 1, "proj:code": "EPSG:32629", "visual": "https://maxar-opendata.s3.amazonaws.com/events/Morocco-Flooding-Dec-2025/ard/29/031311331323/2025-12-18/10300101205D7300-visual.tif", "ms_analytic": "https://maxar-opendata.s3.amazonaws.com/events/Morocco-Flooding-Dec-2025/ard/29/031311331323/2025-12-18/10300101205D7300-ms.tif", "pan_analytic": "https://maxar-opendata.s3.amazonaws.com/events/Morocco-Flooding-Dec-2025/ard/29/031311331323/2025-12-18/10300101205D7300-pan.tif", "data-mask": "https://maxar-opendata.s3.amazonaws.com/events/Morocco-Flooding-Dec-2025/ard/29/031311331323/2025-12-18/10300101205D7300-data-mask.gpkg" }, "geometry": { "type": "Polygon", "coordinates": [ [ [ -9.160849711333737, 32.222917993839069 ], [ -9.160845435503196, 32.220489731670575 ], [ -9.159575870473271, 32.220485834405565 ], [ -9.157302410394571, 32.220535487222634 ], [ -9.155355959279365, 32.220529634921142 ], [ -9.150196866458728, 32.220596439069425 ], [ -9.148030171291925, 32.22058247604383 ], [ -9.145646547419414, 32.220607269951657 ], [ -9.142437134353829, 32.220679755459884 ], [ -9.140293269238112, 32.22077025339641 ], [ -9.137475638654971, 32.220784361608217 ], [ -9.137465936322165, 32.222945586337651 ], [ -9.160849711333737, 32.222917993839069 ] ] ] } }
]
}
